id,postcode,suburb,latitude,longitude,solarstation,solarname,solardistance,solarwet,solardry,solarmean,rainstation,rainname,raindistance,rainwet,raindry,rainmean,tempstation,tempname,tempdistance,tempmaxwet,tempmaxdry,tempmaxmean,tempminwet,tempmindry,tempminmean
1,800,Darwin,-12.459,130.847,14167,Stokes Hill,0.35,5.556,6.126,5.841,14167,Stokes Hill,0.35,276.547,20.386,148.467,14015,Darwin Airport,6.44,32.676,32.318,32.500,24.978,21.350,23.196
2,801,Darwin,-12.459,130.847,14167,Stokes Hill,0.35,5.556,6.126,5.841,14167,Stokes Hill,0.35,276.547,20.386,148.467,14015,Darwin Airport,6.44,32.676,32.318,32.500,24.978,21.350,23.196
3,804,Parap,-12.459,130.834,14170,Larrakeyah,0.46,5.556,6.126,5.841,14170,Larrakeyah,0.46,242.705,13.206,140.706,14015,Darwin Airport,7.57,32.676,32.318,32.500,24.978,21.350,23.196
4,810,Alawa,-12.380,130.856,14112,Nightcliff Pool,0.67,5.567,6.078,5.822,14112,Nightcliff Pool,0.67,240.400,16.054,135.875,14015,Darwin Airport,5.83,32.676,32.318,32.500,24.978,21.350,23.196
5,810,Brinkin,-12.369,130.859,14289,Charles Darwin University,1.23,5.567,6.078,5.822,14289,Charles Darwin University,1.23,176.067,24.758,85.282,14015,Darwin Airport,6.62,32.676,32.318,32.500,24.978,21.350,23.196
6,810,Casuarina,-12.374,130.873,14289,Charles Darwin University,0.56,5.567,6.078,5.822,14289,Charles Darwin University,0.56,176.067,24.758,85.282,14015,Darwin Airport,5.44,32.676,32.318,32.500,24.978,21.350,23.196
7,810,Coconut Grove,-12.395,130.842,14112,Nightcliff Pool,1.89,5.567,6.078,5.822,14112,Nightcliff Pool,1.89,240.400,16.054,135.875,14015,Darwin Airport,6.01,32.676,32.318,32.500,24.978,21.350,23.196
8,810,Jingili,-12.389,130.863,14112,Nightcliff Pool,1.76,5.567,6.078,5.822,14112,Nightcliff Pool,1.76,240.400,16.054,135.875,14015,Darwin Airport,4.56,32.676,32.318,32.500,24.978,21.350,23.196
9,810,Lee Point,-12.341,130.874,14285,Darwin Hospital,2.04,5.567,6.078,5.822,14285,Darwin Hospital,2.04,257.091,26.717,150.048,14015,Darwin Airport,8.95,32.676,32.318,32.500,24.978,21.350,23.196
10,810,Lyons,-12.380,130.880,14289,Charles Darwin University,1.57,5.567,6.078,5.822,14289,Charles Darwin University,1.57,176.067,24.758,85.282,14015,Darwin Airport,4.58,32.676,32.318,32.500,24.978,21.350,23.196
11,810,Millner,-12.392,130.855,14112,Nightcliff Pool,1.44,5.567,6.078,5.822,14112,Nightcliff Pool,1.44,240.400,16.054,135.875,14015,Darwin Airport,4.98,32.676,32.318,32.500,24.978,21.350,23.196
12,810,Moil,-12.388,130.873,14144,Marrara,1.54,5.567,6.078,5.822,14144,Marrara,1.54,283.496,20.623,155.677,14015,Darwin Airport,4.02,32.676,32.318,32.500,24.978,21.350,23.196
13,810,Muirhead,-12.380,130.880,14289,Charles Darwin University,1.57,5.567,6.078,5.822,14289,Charles Darwin University,1.57,176.067,24.758,85.282,14015,Darwin Airport,4.58,32.676,32.318,32.500,24.978,21.350,23.196
14,810,Nakara,-12.371,130.869,14289,Charles Darwin University,0.16,5.567,6.078,5.822,14289,Charles Darwin University,0.16,176.067,24.758,85.282,14015,Darwin Airport,5.92,32.676,32.318,32.500,24.978,21.350,23.196
15,810,Nightcliff,-12.383,130.840,14112,Nightcliff Pool,1.16,5.567,6.078,5.822,14112,Nightcliff Pool,1.16,240.400,16.054,135.875,14015,Darwin Airport,6.90,32.676,32.318,32.500,24.978,21.350,23.196
16,810,Rapid Creek,-12.381,130.840,14112,Nightcliff Pool,1.12,5.567,6.078,5.822,14112,Nightcliff Pool,1.12,240.400,16.054,135.875,14015,Darwin Airport,7.04,32.676,32.318,32.500,24.978,21.350,23.196
17,810,Tiwi,-12.359,130.859,14289,Charles Darwin University,1.73,5.567,6.078,5.822,14289,Charles Darwin University,1.73,176.067,24.758,85.282,14015,Darwin Airport,7.60,32.676,32.318,32.500,24.978,21.350,23.196
18,810,Wagaman,-12.381,130.876,14289,Charles Darwin University,1.39,5.567,6.078,5.822,14289,Charles Darwin University,1.39,176.067,24.758,85.282,14015,Darwin Airport,4.60,32.676,32.318,32.500,24.978,21.350,23.196
19,810,Wanguri,-12.372,130.879,14289,Charles Darwin University,1.02,5.567,6.078,5.822,14289,Charles Darwin University,1.02,176.067,24.758,85.282,14015,Darwin Airport,5.47,32.676,32.318,32.500,24.978,21.350,23.196
20,811,Casuarina,-12.372,130.879,14289,Charles Darwin University,1.02,5.567,6.078,5.822,14289,Charles Darwin University,1.02,176.067,24.758,85.282,14015,Darwin Airport,5.47,32.676,32.318,32.500,24.978,21.350,23.196
21,812,Anula,-12.390,130.882,14144,Marrara,1.13,5.567,6.078,5.822,14144,Marrara,1.13,283.496,20.623,155.677,14015,Darwin Airport,3.45,32.676,32.318,32.500,24.978,21.350,23.196
22,812,Buffalo Creek,-12.400,130.910,14235,Northlakes,1.11,5.567,6.078,5.822,14235,Northlakes,1.11,294.449,19.242,165.820,14015,Darwin Airport,3.14,32.676,32.318,32.500,24.978,21.350,23.196
23,812,Holmes,-12.400,130.910,14235,Northlakes,1.11,5.567,6.078,5.822,14235,Northlakes,1.11,294.449,19.242,165.820,14015,Darwin Airport,3.14,32.676,32.318,32.500,24.978,21.350,23.196
24,812,Karama,-12.400,130.907,14235,Northlakes,0.78,5.567,6.078,5.822,14235,Northlakes,0.78,294.449,19.242,165.820,14015,Darwin Airport,2.91,32.676,32.318,32.500,24.978,21.350,23.196
25,812,Leanyer,-12.371,130.886,14289,Charles Darwin University,1.78,5.567,6.078,5.822,14289,Charles Darwin University,1.78,176.067,24.758,85.282,14015,Darwin Airport,5.46,32.676,32.318,32.500,24.978,21.350,23.196
26,812,Malak,-12.393,130.895,14235,Northlakes,0.95,5.567,6.078,5.822,14235,Northlakes,0.95,294.449,19.242,165.820,14015,Darwin Airport,3.05,32.676,32.318,32.500,24.978,21.350,23.196
27,812,Marrara,-12.404,130.860,14144,Marrara,2.26,5.567,6.078,5.822,14144,Marrara,2.26,283.496,20.623,155.677,14015,Darwin Airport,3.77,32.676,32.318,32.500,24.978,21.350,23.196
28,812,Northlakes,-12.396,130.893,14235,Northlakes,0.89,5.567,6.078,5.822,14235,Northlakes,0.89,294.449,19.242,165.820,14015,Darwin Airport,2.68,32.676,32.318,32.500,24.978,21.350,23.196
29,812,Sanderson,-12.396,130.887,14144,Marrara,0.89,5.567,6.078,5.822,14144,Marrara,0.89,283.496,20.623,155.677,14015,Darwin Airport,2.68,32.676,32.318,32.500,24.978,21.350,23.196
30,812,Woodleigh Gardens,-12.377,130.896,14246,Leanyer,1.59,5.567,6.078,5.822,14246,Leanyer,1.59,265.118,21.830,142.397,14015,Darwin Airport,4.82,32.676,32.318,32.500,24.978,21.350,23.196
31,812,Wulagi,-12.383,130.887,14144,Marrara,2.04,5.567,6.078,5.822,14144,Marrara,2.04,283.496,20.623,155.677,14015,Darwin Airport,4.12,32.676,32.318,32.500,24.978,21.350,23.196
32,813,Sanderson,-12.383,130.756,14238,Wagait Beach,5.26,5.594,6.172,5.883,14238,Wagait Beach,5.26,285.921,22.450,162.251,14015,Darwin Airport,15.43,32.676,32.318,32.500,24.978,21.350,23.196
33,814,Nightcliff,-12.383,130.852,14112,Nightcliff Pool,0.40,5.567,6.078,5.822,14112,Nightcliff Pool,0.40,240.400,16.054,135.875,14015,Darwin Airport,5.89,32.676,32.318,32.500,24.978,21.350,23.196
34,815,Charles Darwin University,-12.372,130.867,14289,Charles Darwin University,0.40,5.567,6.078,5.822,14289,Charles Darwin University,0.40,176.067,24.758,85.282,14015,Darwin Airport,5.91,32.676,32.318,32.500,24.978,21.350,23.196
35,820,Bagot,-12.415,130.852,14163,Darwin Botanic Gardens,3.08,5.556,6.126,5.841,14163,Darwin Botanic Gardens,3.08,292.248,25.738,171.564,14015,Darwin Airport,4.25,32.676,32.318,32.500,24.978,21.350,23.196
36,820,Bayview,-12.438,130.849,14163,Darwin Botanic Gardens,1.02,5.556,6.126,5.841,14163,Darwin Botanic Gardens,1.02,292.248,25.738,171.564,14015,Darwin Airport,4.97,32.676,32.318,32.500,24.978,21.350,23.196
37,820,Charles Darwin,-12.449,130.841,14163,Darwin Botanic Gardens,1.01,5.556,6.126,5.841,14163,Darwin Botanic Gardens,1.01,292.248,25.738,171.564,14015,Darwin Airport,6.32,32.676,32.318,32.500,24.978,21.350,23.196
38,820,Coonawarra,-12.434,130.890,14015,Darwin Airport,1.55,5.567,6.078,5.822,14015,Darwin Airport,1.55,288.390,18.432,154.584,14015,Darwin Airport,1.55,32.676,32.318,32.500,24.978,21.350,23.196
39,820,Cullen Bay,-12.451,130.821,14170,Larrakeyah,1.41,5.556,6.126,5.841,14170,Larrakeyah,1.41,242.705,13.206,140.706,14015,Darwin Airport,8.40,32.676,32.318,32.500,24.978,21.350,23.196
40,820,Darwin DC,-12.410,130.860,14144,Marrara,2.48,5.567,6.078,5.822,14144,Marrara,2.48,283.496,20.623,155.677,14015,Darwin Airport,3.51,32.676,32.318,32.500,24.978,21.350,23.196
41,820,Darwin International Airport,-12.411,130.875,14144,Marrara,1.34,5.567,6.078,5.822,14144,Marrara,1.34,283.496,20.623,155.677,14015,Darwin Airport,1.94,32.676,32.318,32.500,24.978,21.350,23.196
42,820,Darwin MC,-12.430,130.795,14238,Wagait Beach,5.00,5.594,6.172,5.883,14238,Wagait Beach,5.00,285.921,22.450,162.251,14015,Darwin Airport,10.60,32.676,32.318,32.500,24.978,21.350,23.196
43,820,East Point,-12.415,130.829,14163,Darwin Botanic Gardens,3.03,5.556,6.126,5.841,14163,Darwin Botanic Gardens,3.03,292.248,25.738,171.564,14015,Darwin Airport,6.79,32.676,32.318,32.500,24.978,21.350,23.196
44,820,Eaton,-12.410,130.860,14144,Marrara,2.48,5.567,6.078,5.822,14144,Marrara,2.48,283.496,20.623,155.677,14015,Darwin Airport,3.51,32.676,32.318,32.500,24.978,21.350,23.196
45,820,Fannie Bay,-12.428,130.823,14163,Darwin Botanic Gardens,2.31,5.556,6.126,5.841,14163,Darwin Botanic Gardens,2.31,292.248,25.738,171.564,14015,Darwin Airport,7.49,32.676,32.318,32.500,24.978,21.350,23.196
46,820,Larrakeyah,-12.455,130.808,14170,Larrakeyah,2.50,5.556,6.126,5.841,14170,Larrakeyah,2.50,242.705,13.206,140.706,14015,Darwin Airport,9.90,32.676,32.318,32.500,24.978,21.350,23.196
47,820,Ludmilla,-12.417,130.829,14163,Darwin Botanic Gardens,2.83,5.556,6.126,5.841,14163,Darwin Botanic Gardens,2.83,292.248,25.738,171.564,14015,Darwin Airport,6.78,32.676,32.318,32.500,24.978,21.350,23.196
48,820,Parap,-12.434,130.837,14163,Darwin Botanic Gardens,0.74,5.556,6.126,5.841,14163,Darwin Botanic Gardens,0.74,292.248,25.738,171.564,14015,Darwin Airport,6.08,32.676,32.318,32.500,24.978,21.350,23.196
49,820,Raaf Base Darwin,-12.418,130.845,14163,Darwin Botanic Gardens,2.50,5.556,6.126,5.841,14163,Darwin Botanic Gardens,2.50,292.248,25.738,171.564,14015,Darwin Airport,5.00,32.676,32.318,32.500,24.978,21.350,23.196
50,820,Stuart Park,-12.446,130.837,14163,Darwin Botanic Gardens,0.74,5.556,6.126,5.841,14163,Darwin Botanic Gardens,0.74,292.248,25.738,171.564,14015,Darwin Airport,6.55,32.676,32.318,32.500,24.978,21.350,23.196
51,820,The Gardens,-12.446,130.825,14170,Larrakeyah,1.65,5.556,6.126,5.841,14170,Larrakeyah,1.65,242.705,13.206,140.706,14015,Darwin Airport,7.77,32.676,32.318,32.500,24.978,21.350,23.196
52,820,The Narrows,-12.427,130.856,14163,Darwin Botanic Gardens,2.29,5.556,6.126,5.841,14163,Darwin Botanic Gardens,2.29,292.248,25.738,171.564,14015,Darwin Airport,3.85,32.676,32.318,32.500,24.978,21.350,23.196
53,820,Winnellie,-12.429,130.849,14163,Darwin Botanic Gardens,1.58,5.556,6.126,5.841,14163,Darwin Botanic Gardens,1.58,292.248,25.738,171.564,14015,Darwin Airport,4.66,32.676,32.318,32.500,24.978,21.350,23.196
54,820,Woolner,-12.435,130.834,14163,Darwin Botanic Gardens,0.87,5.556,6.126,5.841,14163,Darwin Botanic Gardens,0.87,292.248,25.738,171.564,14015,Darwin Airport,6.44,32.676,32.318,32.500,24.978,21.350,23.196
55,821,Winnellie,-12.429,130.858,14163,Darwin Botanic Gardens,2.34,5.556,6.126,5.841,14163,Darwin Botanic Gardens,2.34,292.248,25.738,171.564,14015,Darwin Airport,3.69,32.676,32.318,32.500,24.978,21.350,23.196
56,822,Acacia Hills,-12.770,131.081,14143,Majestic Orchids,4.79,5.605,6.058,5.832,14143,Majestic Orchids,4.79,283.448,23.155,159.164,14272,Batchelor Airport,31.59,33.584,33.730,33.656,23.498,18.886,21.232
57,822,Angurugu,-13.980,136.453,14518,Groote Eylandt Airport,1.35,5.777,5.830,5.804,14518,Groote Eylandt Airport,1.35,210.855,15.354,113.955,14518,Groote Eylandt Airport,1.35,33.455,30.798,32.150,24.128,17.723,20.982
58,822,Anindilyakwa,-12.800,131.130,14035,Manton Dam,4.44,5.678,6.083,5.881,14035,Manton Dam,4.44,287.164,22.492,143.800,14272,Batchelor Airport,29.89,33.584,33.730,33.656,23.498,18.886,21.232
59,822,Annie River,-12.800,131.130,14035,Manton Dam,4.44,5.678,6.083,5.881,14035,Manton Dam,4.44,287.164,22.492,143.800,14272,Batchelor Airport,29.89,33.584,33.730,33.656,23.498,18.886,21.232
60,822,Bathurst Island,-11.573,129.770,14142,Pirlangimpi Airport,74.66,5.234,5.950,5.592,14142,Pirlangimpi Airport,74.66,300.948,18.919,161.160,14142,Pirlangimpi Airport,74.66,33.050,33.000,33.026,24.528,20.860,22.742
61,822,Bees Creek,-12.580,131.020,14226,Humpty Doo Collard Road,6.66,5.569,6.064,5.817,14226,Humpty Doo Collard Road,6.66,287.624,24.994,167.354,14015,Darwin Airport,22.88,32.676,32.318,32.500,24.978,21.350,23.196
62,822,Belyuen,-12.800,131.130,14035,Manton Dam,4.44,5.678,6.083,5.881,14035,Manton Dam,4.44,287.164,22.492,143.800,14272,Batchelor Airport,29.89,33.584,33.730,33.656,23.498,18.886,21.232
63,822,Black Jungle,-12.800,131.130,14035,Manton Dam,4.44,5.678,6.083,5.881,14035,Manton Dam,4.44,287.164,22.492,143.800,14272,Batchelor Airport,29.89,33.584,33.730,33.656,23.498,18.886,21.232
64,822,Blackmore,-12.800,131.130,14035,Manton Dam,4.44,5.678,6.083,5.881,14035,Manton Dam,4.44,287.164,22.492,143.800,14272,Batchelor Airport,29.89,33.584,33.730,33.656,23.498,18.886,21.232
65,822,Border Store,-12.424,132.961,14153,Black Point,168.23,5.658,6.297,5.977,14198,Jabiru Airport,27.36,260.586,15.443,140.165,14198,Jabiru Airport,27.36,34.898,34.523,34.714,24.783,21.159,23.003
66,822,Burrundie,-12.800,131.130,14035,Manton Dam,4.44,5.678,6.083,5.881,14035,Manton Dam,4.44,287.164,22.492,143.800,14272,Batchelor Airport,29.89,33.584,33.730,33.656,23.498,18.886,21.232
67,822,Bynoe,-12.800,131.130,14035,Manton Dam,4.44,5.678,6.083,5.881,14035,Manton Dam,4.44,287.164,22.492,143.800,14272,Batchelor Airport,29.89,33.584,33.730,33.656,23.498,18.886,21.232
68,822,Bynoe Harbour,-12.800,131.130,14035,Manton Dam,4.44,5.678,6.083,5.881,14035,Manton Dam,4.44,287.164,22.492,143.800,14272,Batchelor Airport,29.89,33.584,33.730,33.656,23.498,18.886,21.232
69,822,Camp Creek,-12.800,131.130,14035,Manton Dam,4.44,5.678,6.083,5.881,14035,Manton Dam,4.44,287.164,22.492,143.800,14272,Batchelor Airport,29.89,33.584,33.730,33.656,23.498,18.886,21.232
70,822,Channel Island,-12.800,131.130,14035,Manton Dam,4.44,5.678,6.083,5.881,14035,Manton Dam,4.44,287.164,22.492,143.800,14272,Batchelor Airport,29.89,33.584,33.730,33.656,23.498,18.886,21.232
71,822,Charles Darwin,-12.449,130.859,14167,Stokes Hill,1.58,5.556,6.126,5.841,14167,Stokes Hill,1.58,276.547,20.386,148.467,14015,Darwin Airport,4.71,32.676,32.318,32.500,24.978,21.350,23.196
72,822,Charlotte,-12.800,131.130,14035,Manton Dam,4.44,5.678,6.083,5.881,14035,Manton Dam,4.44,287.164,22.492,143.800,14272,Batchelor Airport,29.89,33.584,33.730,33.656,23.498,18.886,21.232
73,822,Claravale,-12.800,131.130,14035,Manton Dam,4.44,5.678,6.083,5.881,14035,Manton Dam,4.44,287.164,22.492,143.800,14272,Batchelor Airport,29.89,33.584,33.730,33.656,23.498,18.886,21.232
74,822,Cobourg,-12.800,131.130,14035,Manton Dam,4.44,5.678,6.083,5.881,14035,Manton Dam,4.44,287.164,22.492,143.800,14272,Batchelor Airport,29.89,33.584,33.730,33.656,23.498,18.886,21.232
75,822,Collett Creek,-12.800,131.130,14035,Manton Dam,4.44,5.678,6.083,5.881,14035,Manton Dam,4.44,287.164,22.492,143.800,14272,Batchelor Airport,29.89,33.584,33.730,33.656,23.498,18.886,21.232
76,822,Coomalie Creek,-12.800,131.130,14035,Manton Dam,4.44,5.678,6.083,5.881,14035,Manton Dam,4.44,287.164,22.492,143.800,14272,Batchelor Airport,29.89,33.584,33.730,33.656,23.498,18.886,21.232
77,822,Cox Peninsula,-12.800,131.130,14035,Manton Dam,4.44,5.678,6.083,5.881,14035,Manton Dam,4.44,287.164,22.492,143.800,14272,Batchelor Airport,29.89,33.584,33.730,33.656,23.498,18.886,21.232
78,822,Croker Island,-11.163,132.406,14153,Black Point,29.56,5.658,6.297,5.977,14198,Jabiru Airport,174.64,260.586,15.443,140.165,14153,Black Point,29.56,32.159,31.236,31.705,25.661,22.539,24.114
79,822,Daly,-12.800,131.130,14035,Manton Dam,4.44,5.678,6.083,5.881,14035,Manton Dam,4.44,287.164,22.492,143.800,14272,Batchelor Airport,29.89,33.584,33.730,33.656,23.498,18.886,21.232
80,822,Daly River,-12.800,131.130,14035,Manton Dam,4.44,5.678,6.083,5.881,14035,Manton Dam,4.44,287.164,22.492,143.800,14272,Batchelor Airport,29.89,33.584,33.730,33.656,23.498,18.886,21.232
81,822,Darwin MC,-12.426,130.863,14163,Darwin Botanic Gardens,2.99,5.556,6.126,5.841,14163,Darwin Botanic Gardens,2.99,292.248,25.738,171.564,14015,Darwin Airport,3.07,32.676,32.318,32.500,24.978,21.350,23.196
82,822,Darwin River Dam,-12.800,131.130,14035,Manton Dam,4.44,5.678,6.083,5.881,14035,Manton Dam,4.44,287.164,22.492,143.800,14272,Batchelor Airport,29.89,33.584,33.730,33.656,23.498,18.886,21.232
83,822,Delissaville,-12.800,131.130,14035,Manton Dam,4.44,5.678,6.083,5.881,14035,Manton Dam,4.44,287.164,22.492,143.800,14272,Batchelor Airport,29.89,33.584,33.730,33.656,23.498,18.886,21.232
84,822,Douglas-Daly,-12.800,131.130,14035,Manton Dam,4.44,5.678,6.083,5.881,14035,Manton Dam,4.44,287.164,22.492,143.800,14272,Batchelor Airport,29.89,33.584,33.730,33.656,23.498,18.886,21.232
85,822,East Arm,-12.800,131.130,14035,Manton Dam,4.44,5.678,6.083,5.881,14035,Manton Dam,4.44,287.164,22.492,143.800,14272,Batchelor Airport,29.89,33.584,33.730,33.656,23.498,18.886,21.232
86,822,East Arnhem,-12.800,131.130,14035,Manton Dam,4.44,5.678,6.083,5.881,14035,Manton Dam,4.44,287.164,22.492,143.800,14272,Batchelor Airport,29.89,33.584,33.730,33.656,23.498,18.886,21.232
87,822,Elrundie,-12.800,131.130,14035,Manton Dam,4.44,5.678,6.083,5.881,14035,Manton Dam,4.44,287.164,22.492,143.800,14272,Batchelor Airport,29.89,33.584,33.730,33.656,23.498,18.886,21.232
88,822,Eva Valley,-12.800,131.130,14035,Manton Dam,4.44,5.678,6.083,5.881,14035,Manton Dam,4.44,287.164,22.492,143.800,14272,Batchelor Airport,29.89,33.584,33.730,33.656,23.498,18.886,21.232
89,822,Finniss Valley,-12.800,131.130,14035,Manton Dam,4.44,5.678,6.083,5.881,14035,Manton Dam,4.44,287.164,22.492,143.800,14272,Batchelor Airport,29.89,33.584,33.730,33.656,23.498,18.886,21.232
90,822,Fleming,-12.800,131.130,14035,Manton Dam,4.44,5.678,6.083,5.881,14035,Manton Dam,4.44,287.164,22.492,143.800,14272,Batchelor Airport,29.89,33.584,33.730,33.656,23.498,18.886,21.232
91,822,Fly Creek,-12.797,131.034,14143,Majestic Orchids,1.81,5.605,6.058,5.832,14143,Majestic Orchids,1.81,283.448,23.155,159.164,14272,Batchelor Airport,28.09,33.584,33.730,33.656,23.498,18.886,21.232
92,822,Freds Pass,-12.800,131.130,14035,Manton Dam,4.44,5.678,6.083,5.881,14035,Manton Dam,4.44,287.164,22.492,143.800,14272,Batchelor Airport,29.89,33.584,33.730,33.656,23.498,18.886,21.232
93,822,Galiwinku,-12.011,135.517,14517,Ngayawili,6.01,5.708,6.078,5.893,14517,Ngayawili,6.01,208.652,9.265,109.825,14517,Ngayawili,6.01,32.191,30.955,31.584,25.088,20.962,23.080
94,822,Glyde Point,-12.800,131.130,14035,Manton Dam,4.44,5.678,6.083,5.881,14035,Manton Dam,4.44,287.164,22.492,143.800,14272,Batchelor Airport,29.89,33.584,33.730,33.656,23.498,18.886,21.232
95,822,Goulburn Island,-12.800,131.130,14035,Manton Dam,4.44,5.678,6.083,5.881,14035,Manton Dam,4.44,287.164,22.492,143.800,14272,Batchelor Airport,29.89,33.584,33.730,33.656,23.498,18.886,21.232
96,822,Gunbalanya,-12.800,131.130,14035,Manton Dam,4.44,5.678,6.083,5.881,14035,Manton Dam,4.44,287.164,22.492,143.800,14272,Batchelor Airport,29.89,33.584,33.730,33.656,23.498,18.886,21.232
97,822,Gunn Point,-12.800,131.130,14035,Manton Dam,4.44,5.678,6.083,5.881,14035,Manton Dam,4.44,287.164,22.492,143.800,14272,Batchelor Airport,29.89,33.584,33.730,33.656,23.498,18.886,21.232
98,822,Hayes Creek,-13.673,131.326,14073,Hayes Creek,18.11,5.911,6.052,5.982,14073,Hayes Creek,18.11,137.933,8.173,53.971,14901,Douglas River,23.06,34.672,34.307,34.493,23.300,16.673,20.045
99,822,Hidden Valley,-12.800,131.130,14035,Manton Dam,4.44,5.678,6.083,5.881,14035,Manton Dam,4.44,287.164,22.492,143.800,14272,Batchelor Airport,29.89,33.584,33.730,33.656,23.498,18.886,21.232
100,822,Hotham,-12.800,131.130,14035,Manton Dam,4.44,5.678,6.083,5.881,14035,Manton Dam,4.44,287.164,22.492,143.800,14272,Batchelor Airport,29.89,33.584,33.730,33.656,23.498,18.886,21.232
101,822,Hughes,-12.800,131.130,14035,Manton Dam,4.44,5.678,6.083,5.881,14035,Manton Dam,4.44,287.164,22.492,143.800,14272,Batchelor Airport,29.89,33.584,33.730,33.656,23.498,18.886,21.232
102,822,Kakadu,-12.800,131.130,14035,Manton Dam,4.44,5.678,6.083,5.881,14035,Manton Dam,4.44,287.164,22.492,143.800,14272,Batchelor Airport,29.89,33.584,33.730,33.656,23.498,18.886,21.232
103,822,Koolpinyah,-12.800,131.130,14035,Manton Dam,4.44,5.678,6.083,5.881,14035,Manton Dam,4.44,287.164,22.492,143.800,14272,Batchelor Airport,29.89,33.584,33.730,33.656,23.498,18.886,21.232
104,822,Lake Bennett,-12.916,131.059,14035,Manton Dam,11.54,5.678,6.083,5.881,14035,Manton Dam,11.54,287.164,22.492,143.800,14272,Batchelor Airport,15.22,33.584,33.730,33.656,23.498,18.886,21.232
105,822,Lambells Lagoon,-12.800,131.130,14035,Manton Dam,4.44,5.678,6.083,5.881,14035,Manton Dam,4.44,287.164,22.492,143.800,14272,Batchelor Airport,29.89,33.584,33.730,33.656,23.498,18.886,21.232
106,822,Litchfield Park,-12.800,131.130,14035,Manton Dam,4.44,5.678,6.083,5.881,14035,Manton Dam,4.44,287.164,22.492,143.800,14272,Batchelor Airport,29.89,33.584,33.730,33.656,23.498,18.886,21.232
107,822,Livingstone,-12.800,131.130,14035,Manton Dam,4.44,5.678,6.083,5.881,14035,Manton Dam,4.44,287.164,22.492,143.800,14272,Batchelor Airport,29.89,33.584,33.730,33.656,23.498,18.886,21.232
108,822,Lloyd Creek,-12.800,131.130,14035,Manton Dam,4.44,5.678,6.083,5.881,14035,Manton Dam,4.44,287.164,22.492,143.800,14272,Batchelor Airport,29.89,33.584,33.730,33.656,23.498,18.886,21.232
109,822,Mandorah,-12.800,131.130,14035,Manton Dam,4.44,5.678,6.083,5.881,14035,Manton Dam,4.44,287.164,22.492,143.800,14272,Batchelor Airport,29.89,33.584,33.730,33.656,23.498,18.886,21.232
110,822,Maningrida,-12.800,131.130,14035,Manton Dam,4.44,5.678,6.083,5.881,14035,Manton Dam,4.44,287.164,22.492,143.800,14272,Batchelor Airport,29.89,33.584,33.730,33.656,23.498,18.886,21.232
111,822,Maranunga,-12.800,131.130,14035,Manton Dam,4.44,5.678,6.083,5.881,14035,Manton Dam,4.44,287.164,22.492,143.800,14272,Batchelor Airport,29.89,33.584,33.730,33.656,23.498,18.886,21.232
112,822,Margaret River,-12.800,131.130,14035,Manton Dam,4.44,5.678,6.083,5.881,14035,Manton Dam,4.44,287.164,22.492,143.800,14272,Batchelor Airport,29.89,33.584,33.730,33.656,23.498,18.886,21.232
113,822,Marrakai,-12.800,131.130,14035,Manton Dam,4.44,5.678,6.083,5.881,14035,Manton Dam,4.44,287.164,22.492,143.800,14272,Batchelor Airport,29.89,33.584,33.730,33.656,23.498,18.886,21.232
114,822,Mcminns Lagoon,-12.547,131.032,14219,McMinns Lagoon,5.34,5.577,6.069,5.823,14219,McMinns Lagoon,5.34,302.355,19.953,158.632,14015,Darwin Airport,21.15,32.676,32.318,32.500,24.978,21.350,23.196
115,822,Mickett Creek,-12.800,131.130,14035,Manton Dam,4.44,5.678,6.083,5.881,14035,Manton Dam,4.44,287.164,22.492,143.800,14272,Batchelor Airport,29.89,33.584,33.730,33.656,23.498,18.886,21.232
116,822,Middle Point,-12.800,131.130,14035,Manton Dam,4.44,5.678,6.083,5.881,14035,Manton Dam,4.44,287.164,22.492,143.800,14272,Batchelor Airport,29.89,33.584,33.730,33.656,23.498,18.886,21.232
117,822,Milikapiti,-12.800,131.130,14035,Manton Dam,4.44,5.678,6.083,5.881,14035,Manton Dam,4.44,287.164,22.492,143.800,14272,Batchelor Airport,29.89,33.584,33.730,33.656,23.498,18.886,21.232
118,822,Milingimbi,-12.800,131.130,14035,Manton Dam,4.44,5.678,6.083,5.881,14035,Manton Dam,4.44,287.164,22.492,143.800,14272,Batchelor Airport,29.89,33.584,33.730,33.656,23.498,18.886,21.232
119,822,Millwood,-12.800,131.130,14035,Manton Dam,4.44,5.678,6.083,5.881,14035,Manton Dam,4.44,287.164,22.492,143.800,14272,Batchelor Airport,29.89,33.584,33.730,33.656,23.498,18.886,21.232
120,822,Milyakburra,-12.800,131.130,14035,Manton Dam,4.44,5.678,6.083,5.881,14035,Manton Dam,4.44,287.164,22.492,143.800,14272,Batchelor Airport,29.89,33.584,33.730,33.656,23.498,18.886,21.232
121,822,Minjilang,-12.800,131.130,14035,Manton Dam,4.44,5.678,6.083,5.881,14035,Manton Dam,4.44,287.164,22.492,143.800,14272,Batchelor Airport,29.89,33.584,33.730,33.656,23.498,18.886,21.232
122,822,Mount Bundey,-12.800,131.130,14035,Manton Dam,4.44,5.678,6.083,5.881,14035,Manton Dam,4.44,287.164,22.492,143.800,14272,Batchelor Airport,29.89,33.584,33.730,33.656,23.498,18.886,21.232
123,822,Murrumujuk,-12.800,131.130,14035,Manton Dam,4.44,5.678,6.083,5.881,14035,Manton Dam,4.44,287.164,22.492,143.800,14272,Batchelor Airport,29.89,33.584,33.730,33.656,23.498,18.886,21.232
124,822,Nauiyu,-12.800,131.130,14035,Manton Dam,4.44,5.678,6.083,5.881,14035,Manton Dam,4.44,287.164,22.492,143.800,14272,Batchelor Airport,29.89,33.584,33.730,33.656,23.498,18.886,21.232
125,822,Nemarluk,-12.800,131.130,14035,Manton Dam,4.44,5.678,6.083,5.881,14035,Manton Dam,4.44,287.164,22.492,143.800,14272,Batchelor Airport,29.89,33.584,33.730,33.656,23.498,18.886,21.232
126,822,Nganmarriyanga,-12.800,131.130,14035,Manton Dam,4.44,5.678,6.083,5.881,14035,Manton Dam,4.44,287.164,22.492,143.800,14272,Batchelor Airport,29.89,33.584,33.730,33.656,23.498,18.886,21.232
127,822,Nguiu,-12.800,131.130,14035,Manton Dam,4.44,5.678,6.083,5.881,14035,Manton Dam,4.44,287.164,22.492,143.800,14272,Batchelor Airport,29.89,33.584,33.730,33.656,23.498,18.886,21.232
128,822,Numbulwar,-12.800,131.130,14035,Manton Dam,4.44,5.678,6.083,5.881,14035,Manton Dam,4.44,287.164,22.492,143.800,14272,Batchelor Airport,29.89,33.584,33.730,33.656,23.498,18.886,21.232
129,822,Numburindi,-12.800,131.130,14035,Manton Dam,4.44,5.678,6.083,5.881,14035,Manton Dam,4.44,287.164,22.492,143.800,14272,Batchelor Airport,29.89,33.584,33.730,33.656,23.498,18.886,21.232
130,822,Oenpelli,-12.800,131.130,14035,Manton Dam,4.44,5.678,6.083,5.881,14035,Manton Dam,4.44,287.164,22.492,143.800,14272,Batchelor Airport,29.89,33.584,33.730,33.656,23.498,18.886,21.232
131,822,Palumpa,-12.800,131.130,14035,Manton Dam,4.44,5.678,6.083,5.881,14035,Manton Dam,4.44,287.164,22.492,143.800,14272,Batchelor Airport,29.89,33.584,33.730,33.656,23.498,18.886,21.232
132,822,Peppimenarti,-12.800,131.130,14035,Manton Dam,4.44,5.678,6.083,5.881,14035,Manton Dam,4.44,287.164,22.492,143.800,14272,Batchelor Airport,29.89,33.584,33.730,33.656,23.498,18.886,21.232
133,822,Pirlangimpi,-12.800,131.130,14035,Manton Dam,4.44,5.678,6.083,5.881,14035,Manton Dam,4.44,287.164,22.492,143.800,14272,Batchelor Airport,29.89,33.584,33.730,33.656,23.498,18.886,21.232
134,822,Point Stephens,-12.800,131.130,14035,Manton Dam,4.44,5.678,6.083,5.881,14035,Manton Dam,4.44,287.164,22.492,143.800,14272,Batchelor Airport,29.89,33.584,33.730,33.656,23.498,18.886,21.232
135,822,Point Stuart,-12.800,131.130,14035,Manton Dam,4.44,5.678,6.083,5.881,14035,Manton Dam,4.44,287.164,22.492,143.800,14272,Batchelor Airport,29.89,33.584,33.730,33.656,23.498,18.886,21.232
136,822,Pularumpi,-12.800,131.130,14035,Manton Dam,4.44,5.678,6.083,5.881,14035,Manton Dam,4.44,287.164,22.492,143.800,14272,Batchelor Airport,29.89,33.584,33.730,33.656,23.498,18.886,21.232
137,822,Rakula,-12.800,131.130,14035,Manton Dam,4.44,5.678,6.083,5.881,14035,Manton Dam,4.44,287.164,22.492,143.800,14272,Batchelor Airport,29.89,33.584,33.730,33.656,23.498,18.886,21.232
138,822,Ramingining,-12.800,131.130,14035,Manton Dam,4.44,5.678,6.083,5.881,14035,Manton Dam,4.44,287.164,22.492,143.800,14272,Batchelor Airport,29.89,33.584,33.730,33.656,23.498,18.886,21.232
139,822,Robin Falls,-12.800,131.130,14035,Manton Dam,4.44,5.678,6.083,5.881,14035,Manton Dam,4.44,287.164,22.492,143.800,14272,Batchelor Airport,29.89,33.584,33.730,33.656,23.498,18.886,21.232
140,822,Rum Jungle,-12.800,131.130,14035,Manton Dam,4.44,5.678,6.083,5.881,14035,Manton Dam,4.44,287.164,22.492,143.800,14272,Batchelor Airport,29.89,33.584,33.730,33.656,23.498,18.886,21.232
141,822,Sandpalms Roadhouse,-12.800,131.130,14035,Manton Dam,4.44,5.678,6.083,5.881,14035,Manton Dam,4.44,287.164,22.492,143.800,14272,Batchelor Airport,29.89,33.584,33.730,33.656,23.498,18.886,21.232
142,822,Southport,-12.800,131.130,14035,Manton Dam,4.44,5.678,6.083,5.881,14035,Manton Dam,4.44,287.164,22.492,143.800,14272,Batchelor Airport,29.89,33.584,33.730,33.656,23.498,18.886,21.232
143,822,Stapleton,-12.800,131.130,14035,Manton Dam,4.44,5.678,6.083,5.881,14035,Manton Dam,4.44,287.164,22.492,143.800,14272,Batchelor Airport,29.89,33.584,33.730,33.656,23.498,18.886,21.232
144,822,Thamarrurr,-12.800,131.130,14035,Manton Dam,4.44,5.678,6.083,5.881,14035,Manton Dam,4.44,287.164,22.492,143.800,14272,Batchelor Airport,29.89,33.584,33.730,33.656,23.498,18.886,21.232
145,822,Tipperary,-12.800,131.130,14035,Manton Dam,4.44,5.678,6.083,5.881,14035,Manton Dam,4.44,287.164,22.492,143.800,14272,Batchelor Airport,29.89,33.584,33.730,33.656,23.498,18.886,21.232
146,822,Tivendale,-12.800,131.130,14035,Manton Dam,4.44,5.678,6.083,5.881,14035,Manton Dam,4.44,287.164,22.492,143.800,14272,Batchelor Airport,29.89,33.584,33.730,33.656,23.498,18.886,21.232
147,822,Tiwi Islands,-12.800,131.130,14035,Manton Dam,4.44,5.678,6.083,5.881,14035,Manton Dam,4.44,287.164,22.492,143.800,14272,Batchelor Airport,29.89,33.584,33.730,33.656,23.498,18.886,21.232
148,822,Tortilla Flats,-12.800,131.130,14035,Manton Dam,4.44,5.678,6.083,5.881,14035,Manton Dam,4.44,287.164,22.492,143.800,14272,Batchelor Airport,29.89,33.584,33.730,33.656,23.498,18.886,21.232
149,822,Tumbling Waters,-12.800,131.130,14035,Manton Dam,4.44,5.678,6.083,5.881,14035,Manton Dam,4.44,287.164,22.492,143.800,14272,Batchelor Airport,29.89,33.584,33.730,33.656,23.498,18.886,21.232
150,822,Umbakumba,-12.800,131.130,14035,Manton Dam,4.44,5.678,6.083,5.881,14035,Manton Dam,4.44,287.164,22.492,143.800,14272,Batchelor Airport,29.89,33.584,33.730,33.656,23.498,18.886,21.232
151,822,Vernon Islands,-12.800,131.130,14035,Manton Dam,4.44,5.678,6.083,5.881,14035,Manton Dam,4.44,287.164,22.492,143.800,14272,Batchelor Airport,29.89,33.584,33.730,33.656,23.498,18.886,21.232
152,822,Wadeye,-12.800,131.130,14035,Manton Dam,4.44,5.678,6.083,5.881,14035,Manton Dam,4.44,287.164,22.492,143.800,14272,Batchelor Airport,29.89,33.584,33.730,33.656,23.498,18.886,21.232
153,822,Wagait Beach,-12.436,130.728,14238,Wagait Beach,2.53,5.594,6.172,5.883,14238,Wagait Beach,2.53,285.921,22.450,162.251,14015,Darwin Airport,18.07,32.676,32.318,32.500,24.978,21.350,23.196
154,822,Wak Wak,-12.800,131.130,14035,Manton Dam,4.44,5.678,6.083,5.881,14035,Manton Dam,4.44,287.164,22.492,143.800,14272,Batchelor Airport,29.89,33.584,33.730,33.656,23.498,18.886,21.232
155,822,Warruwi,-12.800,131.130,14035,Manton Dam,4.44,5.678,6.083,5.881,14035,Manton Dam,4.44,287.164,22.492,143.800,14272,Batchelor Airport,29.89,33.584,33.730,33.656,23.498,18.886,21.232
156,822,Weddell,-12.800,131.130,14035,Manton Dam,4.44,5.678,6.083,5.881,14035,Manton Dam,4.44,287.164,22.492,143.800,14272,Batchelor Airport,29.89,33.584,33.730,33.656,23.498,18.886,21.232
157,822,West Arnhem,-12.800,131.130,14035,Manton Dam,4.44,5.678,6.083,5.881,14035,Manton Dam,4.44,287.164,22.492,143.800,14272,Batchelor Airport,29.89,33.584,33.730,33.656,23.498,18.886,21.232
158,822,Wickham,-12.800,131.130,14035,Manton Dam,4.44,5.678,6.083,5.881,14035,Manton Dam,4.44,287.164,22.492,143.800,14272,Batchelor Airport,29.89,33.584,33.730,33.656,23.498,18.886,21.232
159,822,Winnellie,-12.429,130.849,14163,Darwin Botanic Gardens,1.58,5.556,6.126,5.841,14163,Darwin Botanic Gardens,1.58,292.248,25.738,171.564,14015,Darwin Airport,4.66,32.676,32.318,32.500,24.978,21.350,23.196
160,822,Wishart,-12.800,131.130,14035,Manton Dam,4.44,5.678,6.083,5.881,14035,Manton Dam,4.44,287.164,22.492,143.800,14272,Batchelor Airport,29.89,33.584,33.730,33.656,23.498,18.886,21.232
161,822,Woolaning,-12.800,131.130,14035,Manton Dam,4.44,5.678,6.083,5.881,14035,Manton Dam,4.44,287.164,22.492,143.800,14272,Batchelor Airport,29.89,33.584,33.730,33.656,23.498,18.886,21.232
162,828,Berrimah,-12.432,130.895,14015,Darwin Airport,1.44,5.567,6.078,5.822,14015,Darwin Airport,1.44,288.390,18.432,154.584,14015,Darwin Airport,1.44,32.676,32.318,32.500,24.978,21.350,23.196
163,828,Knuckey Lagoon,-12.424,130.910,14265,CSIRO Berrimah,1.91,5.567,6.078,5.822,14265,CSIRO Berrimah,1.91,296.908,18.957,160.605,14015,Darwin Airport,2.26,32.676,32.318,32.500,24.978,21.350,23.196
164,829,Holtze,-14.460,132.280,14305,Katherine Country Club,2.48,6.228,6.056,6.142,14305,Katherine Country Club,2.48,169.019,3.967,86.493,14305,Katherine Country Club,2.48,35.861,33.888,34.911,23.714,17.046,20.504
165,829,Pinelands,-12.457,130.944,14003,Darwin Profiler 050mhz,2.00,5.512,6.053,5.782,14003,Darwin Profiler 050mhz,2.00,0.000,15.000,15.000,14015,Darwin Airport,7.27,32.676,32.318,32.500,24.978,21.350,23.196
166,830,Archer,-12.521,130.927,14070,The Chase,7.79,5.525,6.060,5.792,14070,The Chase,7.79,271.916,20.681,146.298,14015,Darwin Airport,11.94,32.676,32.318,32.500,24.978,21.350,23.196
167,830,Driver,-12.487,130.968,14070,The Chase,2.46,5.525,6.060,5.792,14070,The Chase,2.46,271.916,20.681,146.298,14015,Darwin Airport,11.41,32.676,32.318,32.500,24.978,21.350,23.196
168,830,Durack,-12.473,130.954,14003,Darwin Profiler 050mhz,3.69,5.512,6.053,5.782,14003,Darwin Profiler 050mhz,3.69,0.000,15.000,15.000,14015,Darwin Airport,9.22,32.676,32.318,32.500,24.978,21.350,23.196
169,830,Farrar,-12.480,130.980,14070,The Chase,1.57,5.525,6.060,5.792,14070,The Chase,1.57,271.916,20.681,146.298,14015,Darwin Airport,12.01,32.676,32.318,32.500,24.978,21.350,23.196
170,830,Gray,-12.490,130.973,14070,The Chase,1.89,5.525,6.060,5.792,14070,The Chase,1.89,271.916,20.681,146.298,14015,Darwin Airport,12.05,32.676,32.318,32.500,24.978,21.350,23.196
171,830,Marlow Lagoon,-12.496,130.939,14070,The Chase,5.70,5.525,6.060,5.792,14070,The Chase,5.70,271.916,20.681,146.298,14015,Darwin Airport,10.04,32.676,32.318,32.500,24.978,21.350,23.196
172,830,Moulden,-12.505,130.966,14070,The Chase,3.14,5.525,6.060,5.792,14070,The Chase,3.14,271.916,20.681,146.298,14015,Darwin Airport,12.66,32.676,32.318,32.500,24.978,21.350,23.196
173,830,Palmerston,-12.479,130.977,14210,Palmerston (Yarrawonga),1.76,5.522,6.055,5.788,14210,Palmerston (Yarrawonga),1.76,292.629,18.058,151.265,14015,Darwin Airport,11.67,32.676,32.318,32.500,24.978,21.350,23.196
174,830,Shoal Bay,-12.366,130.915,14246,Leanyer,1.65,5.567,6.078,5.822,14246,Leanyer,1.65,265.118,21.830,142.397,14015,Darwin Airport,6.61,32.676,32.318,32.500,24.978,21.350,23.196
175,830,Woodroffe,-12.503,130.972,14070,The Chase,2.46,5.525,6.060,5.792,14070,The Chase,2.46,271.916,20.681,146.298,14015,Darwin Airport,12.95,32.676,32.318,32.500,24.978,21.350,23.196
176,830,Yarrawonga,-12.474,130.971,14210,Palmerston (Yarrawonga),2.16,5.522,6.055,5.788,14210,Palmerston (Yarrawonga),2.16,292.629,18.058,151.265,14015,Darwin Airport,10.81,32.676,32.318,32.500,24.978,21.350,23.196
177,831,Palmerston,-12.474,130.971,14210,Palmerston (Yarrawonga),2.16,5.522,6.055,5.788,14210,Palmerston (Yarrawonga),2.16,292.629,18.058,151.265,14015,Darwin Airport,10.81,32.676,32.318,32.500,24.978,21.350,23.196
178,832,Bakewell,-12.497,130.984,14070,The Chase,1.02,5.525,6.060,5.792,14070,The Chase,1.02,271.916,20.681,146.298,14015,Darwin Airport,13.49,32.676,32.318,32.500,24.978,21.350,23.196
179,832,Bellamack,-12.515,130.974,14070,The Chase,3.29,5.525,6.060,5.792,14070,The Chase,3.29,271.916,20.681,146.298,14015,Darwin Airport,14.08,32.676,32.318,32.500,24.978,21.350,23.196
180,832,Gunn,-12.488,130.980,14070,The Chase,1.13,5.525,6.060,5.792,14070,The Chase,1.13,271.916,20.681,146.298,14015,Darwin Airport,12.52,32.676,32.318,32.500,24.978,21.350,23.196
181,832,Johnston,-12.490,130.990,14070,The Chase,0.00,5.525,6.060,5.792,14070,The Chase,0.00,271.916,20.681,146.298,14015,Darwin Airport,13.55,32.676,32.318,32.500,24.978,21.350,23.196
182,832,Mitchell,-12.529,130.961,14070,The Chase,5.39,5.525,6.060,5.792,14070,The Chase,5.39,271.916,20.681,146.298,14015,Darwin Airport,14.44,32.676,32.318,32.500,24.978,21.350,23.196
183,832,Rosebery,-12.508,130.982,14070,The Chase,2.19,5.525,6.060,5.792,14070,The Chase,2.19,271.916,20.681,146.298,14015,Darwin Airport,14.13,32.676,32.318,32.500,24.978,21.350,23.196
184,832,Rosebery Heights,-12.502,130.986,14070,The Chase,1.40,5.525,6.060,5.792,14070,The Chase,1.40,271.916,20.681,146.298,14015,Darwin Airport,14.01,32.676,32.318,32.500,24.978,21.350,23.196
185,832,Zuccoli,-12.490,130.990,14070,The Chase,0.00,5.525,6.060,5.792,14070,The Chase,0.00,271.916,20.681,146.298,14015,Darwin Airport,13.55,32.676,32.318,32.500,24.978,21.350,23.196
186,835,Coolalinga,-12.518,131.033,14070,The Chase,5.70,5.525,6.060,5.792,14070,The Chase,5.70,271.916,20.681,146.298,14015,Darwin Airport,19.24,32.676,32.318,32.500,24.978,21.350,23.196
187,835,Howard Springs,-12.467,130.992,14210,Palmerston (Yarrawonga),0.40,5.522,6.055,5.788,14210,Palmerston (Yarrawonga),0.40,292.629,18.058,151.265,14015,Darwin Airport,12.47,32.676,32.318,32.500,24.978,21.350,23.196
188,835,Virginia,-12.545,130.986,14070,The Chase,6.12,5.525,6.060,5.792,14070,The Chase,6.12,271.916,20.681,146.298,14015,Darwin Airport,17.49,32.676,32.318,32.500,24.978,21.350,23.196
189,836,Girraween,-12.526,131.061,14192,Girraween,3.25,5.577,6.069,5.823,14192,Girraween,3.25,278.868,13.727,146.297,14015,Darwin Airport,22.33,32.676,32.318,32.500,24.978,21.350,23.196
190,836,Herbert,-12.525,131.090,14192,Girraween,0.56,5.577,6.069,5.823,14192,Girraween,0.56,278.868,13.727,146.297,14015,Darwin Airport,25.07,32.676,32.318,32.500,24.978,21.350,23.196
191,836,Humpty Doo,-12.584,131.056,14226,Humpty Doo Collard Road,2.70,5.569,6.064,5.817,14226,Humpty Doo Collard Road,2.70,287.624,24.994,167.354,14015,Darwin Airport,25.90,32.676,32.318,32.500,24.978,21.350,23.196
192,837,Manton,-12.813,131.120,14035,Manton Dam,3.20,5.678,6.083,5.881,14035,Manton Dam,3.20,287.164,22.492,143.800,14272,Batchelor Airport,28.14,33.584,33.730,33.656,23.498,18.886,21.232
193,837,Noonamah,-12.644,131.057,14222,Elizabeth Valley,2.59,5.579,6.066,5.822,14222,Elizabeth Valley,2.59,287.711,19.475,170.855,14015,Darwin Airport,31.01,32.676,32.318,32.500,24.978,21.350,23.196
194,838,Berry Springs,-12.702,130.997,14264,Territory Wildlife Park,1.18,5.545,6.047,5.796,14264,Territory Wildlife Park,1.18,295.850,17.360,151.035,14015,Darwin Airport,33.48,32.676,32.318,32.500,24.978,21.350,23.196
195,840,Dundee Beach,-12.733,130.314,14010,Dundee Beach School,7.57,5.480,6.038,5.759,14010,Dundee Beach School,7.57,268.574,15.600,161.252,14277,Dum In Mirrie Airstrip,12.05,32.366,31.569,31.981,25.467,20.906,23.248
196,840,Dundee Downs,-12.764,130.441,14013,Geriatric Park,5.52,5.424,5.981,5.702,14013,Geriatric Park,5.52,328.517,29.173,188.457,14277,Dum In Mirrie Airstrip,15.86,32.366,31.569,31.981,25.467,20.906,23.248
197,840,Dundee Forest,-12.728,130.386,14010,Dundee Beach School,2.53,5.480,6.038,5.759,14010,Dundee Beach School,2.53,268.574,15.600,161.252,14277,Dum In Mirrie Airstrip,9.93,32.366,31.569,31.981,25.467,20.906,23.248
198,841,Darwin River,-12.816,130.824,14183,Darwin River Dam,16.28,5.583,6.104,5.843,14183,Darwin River Dam,16.28,270.474,19.754,145.114,14272,Batchelor Airport,34.60,33.584,33.730,33.656,23.498,18.886,21.232
199,845,Batchelor,-13.087,130.977,14272,Batchelor Airport,7.17,5.693,6.062,5.877,14272,Batchelor Airport,7.17,250.793,20.902,136.847,14272,Batchelor Airport,7.17,33.584,33.730,33.656,23.498,18.886,21.232
200,846,Adelaide River,-13.177,131.027,14092,Adelaide River Post Office,10.70,5.787,6.052,5.919,14092,Adelaide River Post Office,10.70,259.328,19.840,152.129,14272,Batchelor Airport,14.10,33.584,33.730,33.656,23.498,18.886,21.232
201,847,Pine Creek,-13.823,131.686,14960,Pine Creek Council,15.99,6.014,6.062,6.038,14960,Pine Creek Council,15.99,236.242,12.122,133.787,14901,Douglas River,55.06,34.672,34.307,34.493,23.300,16.673,20.045
202,850,Cossack,-14.460,132.260,14305,Katherine Country Club,1.11,6.228,6.056,6.142,14305,Katherine Country Club,1.11,169.019,3.967,86.493,14305,Katherine Country Club,1.11,35.861,33.888,34.911,23.714,17.046,20.504
203,850,Emungalan,-14.460,132.260,14305,Katherine Country Club,1.11,6.228,6.056,6.142,14305,Katherine Country Club,1.11,169.019,3.967,86.493,14305,Katherine Country Club,1.11,35.861,33.888,34.911,23.714,17.046,20.504
204,850,Katherine,-14.452,132.253,14305,Katherine Country Club,2.14,6.228,6.056,6.142,14305,Katherine Country Club,2.14,169.019,3.967,86.493,14305,Katherine Country Club,2.14,35.861,33.888,34.911,23.714,17.046,20.504
205,850,Katherine East,-14.460,132.260,14305,Katherine Country Club,1.11,6.228,6.056,6.142,14305,Katherine Country Club,1.11,169.019,3.967,86.493,14305,Katherine Country Club,1.11,35.861,33.888,34.911,23.714,17.046,20.504
206,850,Katherine South,-14.460,132.260,14305,Katherine Country Club,1.11,6.228,6.056,6.142,14305,Katherine Country Club,1.11,169.019,3.967,86.493,14305,Katherine Country Club,1.11,35.861,33.888,34.911,23.714,17.046,20.504
207,850,Lansdowne,-14.460,132.260,14305,Katherine Country Club,1.11,6.228,6.056,6.142,14305,Katherine Country Club,1.11,169.019,3.967,86.493,14305,Katherine Country Club,1.11,35.861,33.888,34.911,23.714,17.046,20.504
208,851,Katherine,-14.460,132.260,14305,Katherine Country Club,1.11,6.228,6.056,6.142,14305,Katherine Country Club,1.11,169.019,3.967,86.493,14305,Katherine Country Club,1.11,35.861,33.888,34.911,23.714,17.046,20.504
209,852,Arnold,-14.920,133.060,14305,Katherine Country Club,101.88,6.228,6.056,6.142,14305,Katherine Country Club,101.88,169.019,3.967,86.493,14305,Katherine Country Club,101.88,35.861,33.888,34.911,23.714,17.046,20.504
210,852,Baines,-14.920,133.060,14305,Katherine Country Club,101.88,6.228,6.056,6.142,14305,Katherine Country Club,101.88,169.019,3.967,86.493,14305,Katherine Country Club,101.88,35.861,33.888,34.911,23.714,17.046,20.504
211,852,Barunga,-14.920,133.060,14305,Katherine Country Club,101.88,6.228,6.056,6.142,14305,Katherine Country Club,101.88,169.019,3.967,86.493,14305,Katherine Country Club,101.88,35.861,33.888,34.911,23.714,17.046,20.504
212,852,Beswick,-14.920,133.060,14305,Katherine Country Club,101.88,6.228,6.056,6.142,14305,Katherine Country Club,101.88,169.019,3.967,86.493,14305,Katherine Country Club,101.88,35.861,33.888,34.911,23.714,17.046,20.504
213,852,Beswick Creek,-14.920,133.060,14305,Katherine Country Club,101.88,6.228,6.056,6.142,14305,Katherine Country Club,101.88,169.019,3.967,86.493,14305,Katherine Country Club,101.88,35.861,33.888,34.911,23.714,17.046,20.504
214,852,Binjari,-14.920,133.060,14305,Katherine Country Club,101.88,6.228,6.056,6.142,14305,Katherine Country Club,101.88,169.019,3.967,86.493,14305,Katherine Country Club,101.88,35.861,33.888,34.911,23.714,17.046,20.504
215,852,Birdum,-14.920,133.060,14305,Katherine Country Club,101.88,6.228,6.056,6.142,14305,Katherine Country Club,101.88,169.019,3.967,86.493,14305,Katherine Country Club,101.88,35.861,33.888,34.911,23.714,17.046,20.504
216,852,Bradshaw,-14.920,133.060,14305,Katherine Country Club,101.88,6.228,6.056,6.142,14305,Katherine Country Club,101.88,169.019,3.967,86.493,14305,Katherine Country Club,101.88,35.861,33.888,34.911,23.714,17.046,20.504
217,852,Buchanan,-14.920,133.060,14305,Katherine Country Club,101.88,6.228,6.056,6.142,14305,Katherine Country Club,101.88,169.019,3.967,86.493,14305,Katherine Country Club,101.88,35.861,33.888,34.911,23.714,17.046,20.504
218,852,Bulman Weemol,-14.920,133.060,14305,Katherine Country Club,101.88,6.228,6.056,6.142,14305,Katherine Country Club,101.88,169.019,3.967,86.493,14305,Katherine Country Club,101.88,35.861,33.888,34.911,23.714,17.046,20.504
219,852,Creswell,-14.920,133.060,14305,Katherine Country Club,101.88,6.228,6.056,6.142,14305,Katherine Country Club,101.88,169.019,3.967,86.493,14305,Katherine Country Club,101.88,35.861,33.888,34.911,23.714,17.046,20.504
220,852,Daguragu,-14.920,133.060,14305,Katherine Country Club,101.88,6.228,6.056,6.142,14305,Katherine Country Club,101.88,169.019,3.967,86.493,14305,Katherine Country Club,101.88,35.861,33.888,34.911,23.714,17.046,20.504
221,852,Daly Waters,-14.920,133.060,14305,Katherine Country Club,101.88,6.228,6.056,6.142,14305,Katherine Country Club,101.88,169.019,3.967,86.493,14305,Katherine Country Club,101.88,35.861,33.888,34.911,23.714,17.046,20.504
222,852,Delamere,-14.920,133.060,14305,Katherine Country Club,101.88,6.228,6.056,6.142,14305,Katherine Country Club,101.88,169.019,3.967,86.493,14305,Katherine Country Club,101.88,35.861,33.888,34.911,23.714,17.046,20.504
223,852,Dunmarra,-14.920,133.060,14305,Katherine Country Club,101.88,6.228,6.056,6.142,14305,Katherine Country Club,101.88,169.019,3.967,86.493,14305,Katherine Country Club,101.88,35.861,33.888,34.911,23.714,17.046,20.504
224,852,Edith,-14.920,133.060,14305,Katherine Country Club,101.88,6.228,6.056,6.142,14305,Katherine Country Club,101.88,169.019,3.967,86.493,14305,Katherine Country Club,101.88,35.861,33.888,34.911,23.714,17.046,20.504
225,852,Elsey,-14.920,133.060,14305,Katherine Country Club,101.88,6.228,6.056,6.142,14305,Katherine Country Club,101.88,169.019,3.967,86.493,14305,Katherine Country Club,101.88,35.861,33.888,34.911,23.714,17.046,20.504
226,852,Elsey Station,-14.920,133.060,14305,Katherine Country Club,101.88,6.228,6.056,6.142,14305,Katherine Country Club,101.88,169.019,3.967,86.493,14305,Katherine Country Club,101.88,35.861,33.888,34.911,23.714,17.046,20.504
227,852,Florina,-14.920,133.060,14305,Katherine Country Club,101.88,6.228,6.056,6.142,14305,Katherine Country Club,101.88,169.019,3.967,86.493,14305,Katherine Country Club,101.88,35.861,33.888,34.911,23.714,17.046,20.504
228,852,Flying Fox,-14.920,133.060,14305,Katherine Country Club,101.88,6.228,6.056,6.142,14305,Katherine Country Club,101.88,169.019,3.967,86.493,14305,Katherine Country Club,101.88,35.861,33.888,34.911,23.714,17.046,20.504
229,852,Gregory,-14.920,133.060,14305,Katherine Country Club,101.88,6.228,6.056,6.142,14305,Katherine Country Club,101.88,169.019,3.967,86.493,14305,Katherine Country Club,101.88,35.861,33.888,34.911,23.714,17.046,20.504
230,852,Gulung Mardrulk,-14.920,133.060,14305,Katherine Country Club,101.88,6.228,6.056,6.142,14305,Katherine Country Club,101.88,169.019,3.967,86.493,14305,Katherine Country Club,101.88,35.861,33.888,34.911,23.714,17.046,20.504
231,852,Gurindji,-14.920,133.060,14305,Katherine Country Club,101.88,6.228,6.056,6.142,14305,Katherine Country Club,101.88,169.019,3.967,86.493,14305,Katherine Country Club,101.88,35.861,33.888,34.911,23.714,17.046,20.504
232,852,Jilkminggan,-14.920,133.060,14305,Katherine Country Club,101.88,6.228,6.056,6.142,14305,Katherine Country Club,101.88,169.019,3.967,86.493,14305,Katherine Country Club,101.88,35.861,33.888,34.911,23.714,17.046,20.504
233,852,Kalkarindji,-14.920,133.060,14305,Katherine Country Club,101.88,6.228,6.056,6.142,14305,Katherine Country Club,101.88,169.019,3.967,86.493,14305,Katherine Country Club,101.88,35.861,33.888,34.911,23.714,17.046,20.504
234,852,Katherine,-14.920,133.060,14305,Katherine Country Club,101.88,6.228,6.056,6.142,14305,Katherine Country Club,101.88,169.019,3.967,86.493,14305,Katherine Country Club,101.88,35.861,33.888,34.911,23.714,17.046,20.504
235,852,Lajamanu,-14.920,133.060,14305,Katherine Country Club,101.88,6.228,6.056,6.142,14305,Katherine Country Club,101.88,169.019,3.967,86.493,14305,Katherine Country Club,101.88,35.861,33.888,34.911,23.714,17.046,20.504
236,852,Larrimah,-14.920,133.060,14305,Katherine Country Club,101.88,6.228,6.056,6.142,14305,Katherine Country Club,101.88,169.019,3.967,86.493,14305,Katherine Country Club,101.88,35.861,33.888,34.911,23.714,17.046,20.504
237,852,Limmen,-14.920,133.060,14305,Katherine Country Club,101.88,6.228,6.056,6.142,14305,Katherine Country Club,101.88,169.019,3.967,86.493,14305,Katherine Country Club,101.88,35.861,33.888,34.911,23.714,17.046,20.504
238,852,Manbulloo,-14.920,133.060,14305,Katherine Country Club,101.88,6.228,6.056,6.142,14305,Katherine Country Club,101.88,169.019,3.967,86.493,14305,Katherine Country Club,101.88,35.861,33.888,34.911,23.714,17.046,20.504
239,852,Maranboy,-14.920,133.060,14305,Katherine Country Club,101.88,6.228,6.056,6.142,14305,Katherine Country Club,101.88,169.019,3.967,86.493,14305,Katherine Country Club,101.88,35.861,33.888,34.911,23.714,17.046,20.504
240,852,Mataranka,-14.920,133.060,14305,Katherine Country Club,101.88,6.228,6.056,6.142,14305,Katherine Country Club,101.88,169.019,3.967,86.493,14305,Katherine Country Club,101.88,35.861,33.888,34.911,23.714,17.046,20.504
241,852,Mcarthur,-14.920,133.060,14305,Katherine Country Club,101.88,6.228,6.056,6.142,14305,Katherine Country Club,101.88,169.019,3.967,86.493,14305,Katherine Country Club,101.88,35.861,33.888,34.911,23.714,17.046,20.504
242,852,Miniyeri,-14.920,133.060,14305,Katherine Country Club,101.88,6.228,6.056,6.142,14305,Katherine Country Club,101.88,169.019,3.967,86.493,14305,Katherine Country Club,101.88,35.861,33.888,34.911,23.714,17.046,20.504
243,852,Ngukurr,-14.920,133.060,14305,Katherine Country Club,101.88,6.228,6.056,6.142,14305,Katherine Country Club,101.88,169.019,3.967,86.493,14305,Katherine Country Club,101.88,35.861,33.888,34.911,23.714,17.046,20.504
244,852,Nitmiluk,-14.920,133.060,14305,Katherine Country Club,101.88,6.228,6.056,6.142,14305,Katherine Country Club,101.88,169.019,3.967,86.493,14305,Katherine Country Club,101.88,35.861,33.888,34.911,23.714,17.046,20.504
245,852,Pellew Islands,-14.920,133.060,14305,Katherine Country Club,101.88,6.228,6.056,6.142,14305,Katherine Country Club,101.88,169.019,3.967,86.493,14305,Katherine Country Club,101.88,35.861,33.888,34.911,23.714,17.046,20.504
246,852,Pigeon Hole,-14.920,133.060,14305,Katherine Country Club,101.88,6.228,6.056,6.142,14305,Katherine Country Club,101.88,169.019,3.967,86.493,14305,Katherine Country Club,101.88,35.861,33.888,34.911,23.714,17.046,20.504
247,852,Robinson River,-14.920,133.060,14305,Katherine Country Club,101.88,6.228,6.056,6.142,14305,Katherine Country Club,101.88,169.019,3.967,86.493,14305,Katherine Country Club,101.88,35.861,33.888,34.911,23.714,17.046,20.504
248,852,Sturt Plateau,-14.920,133.060,14305,Katherine Country Club,101.88,6.228,6.056,6.142,14305,Katherine Country Club,101.88,169.019,3.967,86.493,14305,Katherine Country Club,101.88,35.861,33.888,34.911,23.714,17.046,20.504
249,852,Tanami East,-14.920,133.060,14305,Katherine Country Club,101.88,6.228,6.056,6.142,14305,Katherine Country Club,101.88,169.019,3.967,86.493,14305,Katherine Country Club,101.88,35.861,33.888,34.911,23.714,17.046,20.504
250,852,Timber Creek,-14.920,133.060,14305,Katherine Country Club,101.88,6.228,6.056,6.142,14305,Katherine Country Club,101.88,169.019,3.967,86.493,14305,Katherine Country Club,101.88,35.861,33.888,34.911,23.714,17.046,20.504
251,852,Top Springs,-14.920,133.060,14305,Katherine Country Club,101.88,6.228,6.056,6.142,14305,Katherine Country Club,101.88,169.019,3.967,86.493,14305,Katherine Country Club,101.88,35.861,33.888,34.911,23.714,17.046,20.504
252,852,Uralla,-14.920,133.060,14305,Katherine Country Club,101.88,6.228,6.056,6.142,14305,Katherine Country Club,101.88,169.019,3.967,86.493,14305,Katherine Country Club,101.88,35.861,33.888,34.911,23.714,17.046,20.504
253,852,Venn,-14.920,133.060,14305,Katherine Country Club,101.88,6.228,6.056,6.142,14305,Katherine Country Club,101.88,169.019,3.967,86.493,14305,Katherine Country Club,101.88,35.861,33.888,34.911,23.714,17.046,20.504
254,852,Victoria River,-14.920,133.060,14305,Katherine Country Club,101.88,6.228,6.056,6.142,14305,Katherine Country Club,101.88,169.019,3.967,86.493,14305,Katherine Country Club,101.88,35.861,33.888,34.911,23.714,17.046,20.504
255,852,Victoria River Downs,-14.920,133.060,14305,Katherine Country Club,101.88,6.228,6.056,6.142,14305,Katherine Country Club,101.88,169.019,3.967,86.493,14305,Katherine Country Club,101.88,35.861,33.888,34.911,23.714,17.046,20.504
256,852,Warumungu,-14.920,133.060,14305,Katherine Country Club,101.88,6.228,6.056,6.142,14305,Katherine Country Club,101.88,169.019,3.967,86.493,14305,Katherine Country Club,101.88,35.861,33.888,34.911,23.714,17.046,20.504
257,852,Wave Hill,-14.920,133.060,14305,Katherine Country Club,101.88,6.228,6.056,6.142,14305,Katherine Country Club,101.88,169.019,3.967,86.493,14305,Katherine Country Club,101.88,35.861,33.888,34.911,23.714,17.046,20.504
258,852,Wilton,-14.920,133.060,14305,Katherine Country Club,101.88,6.228,6.056,6.142,14305,Katherine Country Club,101.88,169.019,3.967,86.493,14305,Katherine Country Club,101.88,35.861,33.888,34.911,23.714,17.046,20.504
259,852,Yarralin,-14.920,133.060,14305,Katherine Country Club,101.88,6.228,6.056,6.142,14305,Katherine Country Club,101.88,169.019,3.967,86.493,14305,Katherine Country Club,101.88,35.861,33.888,34.911,23.714,17.046,20.504
260,853,Tindal,-14.523,132.397,14305,Katherine Country Club,16.31,6.228,6.056,6.142,14305,Katherine Country Club,16.31,169.019,3.967,86.493,14305,Katherine Country Club,16.31,35.861,33.888,34.911,23.714,17.046,20.504
261,854,Borroloola,-16.820,137.150,14518,Groote Eylandt Airport,325.49,5.777,5.830,5.804,14518,Groote Eylandt Airport,325.49,210.855,15.354,113.955,14518,Groote Eylandt Airport,325.49,33.455,30.798,32.150,24.128,17.723,20.982
262,854,King Ash Bay,-16.820,137.150,14518,Groote Eylandt Airport,325.49,5.777,5.830,5.804,14518,Groote Eylandt Airport,325.49,210.855,15.354,113.955,14518,Groote Eylandt Airport,325.49,33.455,30.798,32.150,24.128,17.723,20.982
263,860,Tennant Creek,-19.650,134.190,15135,Tennant Creek Airport,1.57,6.609,5.653,6.131,15135,Tennant Creek Airport,1.57,77.867,7.677,43.077,15135,Tennant Creek Airport,1.57,35.352,28.661,32.065,23.571,16.007,19.855
264,861,Brunchilly,-18.940,134.320,15135,Tennant Creek Airport,79.24,6.609,5.653,6.131,15135,Tennant Creek Airport,79.24,77.867,7.677,43.077,15135,Tennant Creek Airport,79.24,35.352,28.661,32.065,23.571,16.007,19.855
265,861,Tennant Creek,-18.940,134.320,15135,Tennant Creek Airport,79.24,6.609,5.653,6.131,15135,Tennant Creek Airport,79.24,77.867,7.677,43.077,15135,Tennant Creek Airport,79.24,35.352,28.661,32.065,23.571,16.007,19.855
266,862,Avon Downs,-20.230,137.760,15135,Tennant Creek Airport,402.74,6.609,5.653,6.131,15135,Tennant Creek Airport,402.74,77.867,7.677,43.077,15135,Tennant Creek Airport,402.74,35.352,28.661,32.065,23.571,16.007,19.855
267,862,Calvert,-20.230,137.760,15135,Tennant Creek Airport,402.74,6.609,5.653,6.131,15135,Tennant Creek Airport,402.74,77.867,7.677,43.077,15135,Tennant Creek Airport,402.74,35.352,28.661,32.065,23.571,16.007,19.855
268,862,Cresswell Downs,-20.230,137.760,15135,Tennant Creek Airport,402.74,6.609,5.653,6.131,15135,Tennant Creek Airport,402.74,77.867,7.677,43.077,15135,Tennant Creek Airport,402.74,35.352,28.661,32.065,23.571,16.007,19.855
269,862,Elliott,-20.230,137.760,15135,Tennant Creek Airport,402.74,6.609,5.653,6.131,15135,Tennant Creek Airport,402.74,77.867,7.677,43.077,15135,Tennant Creek Airport,402.74,35.352,28.661,32.065,23.571,16.007,19.855
270,862,Helen Springs,-20.230,137.760,15135,Tennant Creek Airport,402.74,6.609,5.653,6.131,15135,Tennant Creek Airport,402.74,77.867,7.677,43.077,15135,Tennant Creek Airport,402.74,35.352,28.661,32.065,23.571,16.007,19.855
271,862,Muckaty Station,-20.230,137.760,15135,Tennant Creek Airport,402.74,6.609,5.653,6.131,15135,Tennant Creek Airport,402.74,77.867,7.677,43.077,15135,Tennant Creek Airport,402.74,35.352,28.661,32.065,23.571,16.007,19.855
272,862,Newcastle Waters,-20.230,137.760,15135,Tennant Creek Airport,402.74,6.609,5.653,6.131,15135,Tennant Creek Airport,402.74,77.867,7.677,43.077,15135,Tennant Creek Airport,402.74,35.352,28.661,32.065,23.571,16.007,19.855
273,862,Nicholson,-20.230,137.760,15135,Tennant Creek Airport,402.74,6.609,5.653,6.131,15135,Tennant Creek Airport,402.74,77.867,7.677,43.077,15135,Tennant Creek Airport,402.74,35.352,28.661,32.065,23.571,16.007,19.855
274,862,Pamayu,-20.230,137.760,15135,Tennant Creek Airport,402.74,6.609,5.653,6.131,15135,Tennant Creek Airport,402.74,77.867,7.677,43.077,15135,Tennant Creek Airport,402.74,35.352,28.661,32.065,23.571,16.007,19.855
275,862,Phillip Creek Station,-20.230,137.760,15135,Tennant Creek Airport,402.74,6.609,5.653,6.131,15135,Tennant Creek Airport,402.74,77.867,7.677,43.077,15135,Tennant Creek Airport,402.74,35.352,28.661,32.065,23.571,16.007,19.855
276,862,Renner Springs,-20.230,137.760,15135,Tennant Creek Airport,402.74,6.609,5.653,6.131,15135,Tennant Creek Airport,402.74,77.867,7.677,43.077,15135,Tennant Creek Airport,402.74,35.352,28.661,32.065,23.571,16.007,19.855
277,862,Tablelands,-20.230,137.760,15135,Tennant Creek Airport,402.74,6.609,5.653,6.131,15135,Tennant Creek Airport,402.74,77.867,7.677,43.077,15135,Tennant Creek Airport,402.74,35.352,28.661,32.065,23.571,16.007,19.855
278,862,Tennant Creek,-19.659,134.121,15135,Tennant Creek Airport,6.88,6.609,5.653,6.131,15135,Tennant Creek Airport,6.88,77.867,7.677,43.077,15135,Tennant Creek Airport,6.88,35.352,28.661,32.065,23.571,16.007,19.855
279,862,Three Ways,-20.230,137.760,15135,Tennant Creek Airport,402.74,6.609,5.653,6.131,15135,Tennant Creek Airport,402.74,77.867,7.677,43.077,15135,Tennant Creek Airport,402.74,35.352,28.661,32.065,23.571,16.007,19.855
280,862,Warrego,-20.230,137.760,15135,Tennant Creek Airport,402.74,6.609,5.653,6.131,15135,Tennant Creek Airport,402.74,77.867,7.677,43.077,15135,Tennant Creek Airport,402.74,35.352,28.661,32.065,23.571,16.007,19.855
281,862,Wollogorang Station,-20.230,137.760,15135,Tennant Creek Airport,402.74,6.609,5.653,6.131,15135,Tennant Creek Airport,402.74,77.867,7.677,43.077,15135,Tennant Creek Airport,402.74,35.352,28.661,32.065,23.571,16.007,19.855
282,862,Wycliffe Well,-20.230,137.760,15135,Tennant Creek Airport,402.74,6.609,5.653,6.131,15135,Tennant Creek Airport,402.74,77.867,7.677,43.077,15135,Tennant Creek Airport,402.74,35.352,28.661,32.065,23.571,16.007,19.855
283,870,Alice Springs,-23.699,133.871,15628,Alice Springs Golf Club,2.54,6.768,5.191,5.980,15628,Alice Springs Golf Club,2.54,28.836,9.364,19.100,15590,Alice Springs Airport,11.41,33.924,24.636,29.361,18.622,7.850,13.331
284,870,Araluen,-12.440,130.840,14163,Darwin Botanic Gardens,0.00,5.556,6.126,5.841,14163,Darwin Botanic Gardens,0.00,292.248,25.738,171.564,14015,Darwin Airport,5.98,32.676,32.318,32.500,24.978,21.350,23.196
285,870,Arumbera,-12.440,130.840,14163,Darwin Botanic Gardens,0.00,5.556,6.126,5.841,14163,Darwin Botanic Gardens,0.00,292.248,25.738,171.564,14015,Darwin Airport,5.98,32.676,32.318,32.500,24.978,21.350,23.196
286,870,Braitling,-12.440,130.840,14163,Darwin Botanic Gardens,0.00,5.556,6.126,5.841,14163,Darwin Botanic Gardens,0.00,292.248,25.738,171.564,14015,Darwin Airport,5.98,32.676,32.318,32.500,24.978,21.350,23.196
287,870,Ciccone,-12.440,130.840,14163,Darwin Botanic Gardens,0.00,5.556,6.126,5.841,14163,Darwin Botanic Gardens,0.00,292.248,25.738,171.564,14015,Darwin Airport,5.98,32.676,32.318,32.500,24.978,21.350,23.196
288,870,Connellan,-12.440,130.840,14163,Darwin Botanic Gardens,0.00,5.556,6.126,5.841,14163,Darwin Botanic Gardens,0.00,292.248,25.738,171.564,14015,Darwin Airport,5.98,32.676,32.318,32.500,24.978,21.350,23.196
289,870,Desert Springs,-12.440,130.840,14163,Darwin Botanic Gardens,0.00,5.556,6.126,5.841,14163,Darwin Botanic Gardens,0.00,292.248,25.738,171.564,14015,Darwin Airport,5.98,32.676,32.318,32.500,24.978,21.350,23.196
290,870,East Side,-12.440,130.840,14163,Darwin Botanic Gardens,0.00,5.556,6.126,5.841,14163,Darwin Botanic Gardens,0.00,292.248,25.738,171.564,14015,Darwin Airport,5.98,32.676,32.318,32.500,24.978,21.350,23.196
291,870,Flynn,-12.440,130.840,14163,Darwin Botanic Gardens,0.00,5.556,6.126,5.841,14163,Darwin Botanic Gardens,0.00,292.248,25.738,171.564,14015,Darwin Airport,5.98,32.676,32.318,32.500,24.978,21.350,23.196
292,870,Gillen,-12.440,130.840,14163,Darwin Botanic Gardens,0.00,5.556,6.126,5.841,14163,Darwin Botanic Gardens,0.00,292.248,25.738,171.564,14015,Darwin Airport,5.98,32.676,32.318,32.500,24.978,21.350,23.196
293,870,Ilparpa,-12.440,130.840,14163,Darwin Botanic Gardens,0.00,5.556,6.126,5.841,14163,Darwin Botanic Gardens,0.00,292.248,25.738,171.564,14015,Darwin Airport,5.98,32.676,32.318,32.500,24.978,21.350,23.196
294,870,Irlpme,-12.440,130.840,14163,Darwin Botanic Gardens,0.00,5.556,6.126,5.841,14163,Darwin Botanic Gardens,0.00,292.248,25.738,171.564,14015,Darwin Airport,5.98,32.676,32.318,32.500,24.978,21.350,23.196
295,870,Larapinta,-12.440,130.840,14163,Darwin Botanic Gardens,0.00,5.556,6.126,5.841,14163,Darwin Botanic Gardens,0.00,292.248,25.738,171.564,14015,Darwin Airport,5.98,32.676,32.318,32.500,24.978,21.350,23.196
296,870,Mount Johns,-12.440,130.840,14163,Darwin Botanic Gardens,0.00,5.556,6.126,5.841,14163,Darwin Botanic Gardens,0.00,292.248,25.738,171.564,14015,Darwin Airport,5.98,32.676,32.318,32.500,24.978,21.350,23.196
297,870,Ross,-12.440,130.840,14163,Darwin Botanic Gardens,0.00,5.556,6.126,5.841,14163,Darwin Botanic Gardens,0.00,292.248,25.738,171.564,14015,Darwin Airport,5.98,32.676,32.318,32.500,24.978,21.350,23.196
298,870,Sadadeen,-12.440,130.840,14163,Darwin Botanic Gardens,0.00,5.556,6.126,5.841,14163,Darwin Botanic Gardens,0.00,292.248,25.738,171.564,14015,Darwin Airport,5.98,32.676,32.318,32.500,24.978,21.350,23.196
299,870,Stuart,-12.440,130.840,14163,Darwin Botanic Gardens,0.00,5.556,6.126,5.841,14163,Darwin Botanic Gardens,0.00,292.248,25.738,171.564,14015,Darwin Airport,5.98,32.676,32.318,32.500,24.978,21.350,23.196
300,870,The Gap,-12.440,130.840,14163,Darwin Botanic Gardens,0.00,5.556,6.126,5.841,14163,Darwin Botanic Gardens,0.00,292.248,25.738,171.564,14015,Darwin Airport,5.98,32.676,32.318,32.500,24.978,21.350,23.196
301,870,Undoolya,-12.440,130.840,14163,Darwin Botanic Gardens,0.00,5.556,6.126,5.841,14163,Darwin Botanic Gardens,0.00,292.248,25.738,171.564,14015,Darwin Airport,5.98,32.676,32.318,32.500,24.978,21.350,23.196
302,870,White Gums,-12.440,130.840,14163,Darwin Botanic Gardens,0.00,5.556,6.126,5.841,14163,Darwin Botanic Gardens,0.00,292.248,25.738,171.564,14015,Darwin Airport,5.98,32.676,32.318,32.500,24.978,21.350,23.196
303,871,Alice Springs,-23.699,133.871,15628,Alice Springs Golf Club,2.54,6.768,5.191,5.980,15628,Alice Springs Golf Club,2.54,28.836,9.364,19.100,15590,Alice Springs Airport,11.41,33.924,24.636,29.361,18.622,7.850,13.331
304,872,Aherrenge,-21.000,134.380,15135,Tennant Creek Airport,152.58,6.609,5.653,6.131,15135,Tennant Creek Airport,152.58,77.867,7.677,43.077,15135,Tennant Creek Airport,152.58,35.352,28.661,32.065,23.571,16.007,19.855
305,872,Ali Curung,-21.000,134.380,15135,Tennant Creek Airport,152.58,6.609,5.653,6.131,15135,Tennant Creek Airport,152.58,77.867,7.677,43.077,15135,Tennant Creek Airport,152.58,35.352,28.661,32.065,23.571,16.007,19.855
306,872,Alice Springs,-23.699,133.871,15628,Alice Springs Golf Club,2.54,6.768,5.191,5.980,15628,Alice Springs Golf Club,2.54,28.836,9.364,19.100,15590,Alice Springs Airport,11.41,33.924,24.636,29.361,18.622,7.850,13.331
307,872,Amata,-21.000,134.380,15135,Tennant Creek Airport,152.58,6.609,5.653,6.131,15135,Tennant Creek Airport,152.58,77.867,7.677,43.077,15135,Tennant Creek Airport,152.58,35.352,28.661,32.065,23.571,16.007,19.855
308,872,Amoonguna,-21.000,134.380,15135,Tennant Creek Airport,152.58,6.609,5.653,6.131,15135,Tennant Creek Airport,152.58,77.867,7.677,43.077,15135,Tennant Creek Airport,152.58,35.352,28.661,32.065,23.571,16.007,19.855
309,872,Ampilatwatja,-21.000,134.380,15135,Tennant Creek Airport,152.58,6.609,5.653,6.131,15135,Tennant Creek Airport,152.58,77.867,7.677,43.077,15135,Tennant Creek Airport,152.58,35.352,28.661,32.065,23.571,16.007,19.855
310,872,Anatye,-21.000,134.380,15135,Tennant Creek Airport,152.58,6.609,5.653,6.131,15135,Tennant Creek Airport,152.58,77.867,7.677,43.077,15135,Tennant Creek Airport,152.58,35.352,28.661,32.065,23.571,16.007,19.855
311,872,Anmatjere,-21.000,134.380,15135,Tennant Creek Airport,152.58,6.609,5.653,6.131,15135,Tennant Creek Airport,152.58,77.867,7.677,43.077,15135,Tennant Creek Airport,152.58,35.352,28.661,32.065,23.571,16.007,19.855
312,872,Antewenegerrde,-21.000,134.380,15135,Tennant Creek Airport,152.58,6.609,5.653,6.131,15135,Tennant Creek Airport,152.58,77.867,7.677,43.077,15135,Tennant Creek Airport,152.58,35.352,28.661,32.065,23.571,16.007,19.855
313,872,Areyonga,-21.000,134.380,15135,Tennant Creek Airport,152.58,6.609,5.653,6.131,15135,Tennant Creek Airport,152.58,77.867,7.677,43.077,15135,Tennant Creek Airport,152.58,35.352,28.661,32.065,23.571,16.007,19.855
314,872,Atitjere,-21.000,134.380,15135,Tennant Creek Airport,152.58,6.609,5.653,6.131,15135,Tennant Creek Airport,152.58,77.867,7.677,43.077,15135,Tennant Creek Airport,152.58,35.352,28.661,32.065,23.571,16.007,19.855
315,872,Ayers Rock,-21.000,134.380,15135,Tennant Creek Airport,152.58,6.609,5.653,6.131,15135,Tennant Creek Airport,152.58,77.867,7.677,43.077,15135,Tennant Creek Airport,152.58,35.352,28.661,32.065,23.571,16.007,19.855
316,872,Barrow Creek,-21.000,134.380,15135,Tennant Creek Airport,152.58,6.609,5.653,6.131,15135,Tennant Creek Airport,152.58,77.867,7.677,43.077,15135,Tennant Creek Airport,152.58,35.352,28.661,32.065,23.571,16.007,19.855
317,872,Burt Plain,-21.000,134.380,15135,Tennant Creek Airport,152.58,6.609,5.653,6.131,15135,Tennant Creek Airport,152.58,77.867,7.677,43.077,15135,Tennant Creek Airport,152.58,35.352,28.661,32.065,23.571,16.007,19.855
318,872,Canteen Creek,-21.000,134.380,15135,Tennant Creek Airport,152.58,6.609,5.653,6.131,15135,Tennant Creek Airport,152.58,77.867,7.677,43.077,15135,Tennant Creek Airport,152.58,35.352,28.661,32.065,23.571,16.007,19.855
319,872,Chilla Well,-21.000,134.380,15135,Tennant Creek Airport,152.58,6.609,5.653,6.131,15135,Tennant Creek Airport,152.58,77.867,7.677,43.077,15135,Tennant Creek Airport,152.58,35.352,28.661,32.065,23.571,16.007,19.855
320,872,Costello,-21.000,134.380,15135,Tennant Creek Airport,152.58,6.609,5.653,6.131,15135,Tennant Creek Airport,152.58,77.867,7.677,43.077,15135,Tennant Creek Airport,152.58,35.352,28.661,32.065,23.571,16.007,19.855
321,872,Davenport,-21.000,134.380,15135,Tennant Creek Airport,152.58,6.609,5.653,6.131,15135,Tennant Creek Airport,152.58,77.867,7.677,43.077,15135,Tennant Creek Airport,152.58,35.352,28.661,32.065,23.571,16.007,19.855
322,872,Docker River,-21.000,134.380,15135,Tennant Creek Airport,152.58,6.609,5.653,6.131,15135,Tennant Creek Airport,152.58,77.867,7.677,43.077,15135,Tennant Creek Airport,152.58,35.352,28.661,32.065,23.571,16.007,19.855
323,872,Engawala,-21.000,134.380,15135,Tennant Creek Airport,152.58,6.609,5.653,6.131,15135,Tennant Creek Airport,152.58,77.867,7.677,43.077,15135,Tennant Creek Airport,152.58,35.352,28.661,32.065,23.571,16.007,19.855
324,872,Erldunda,-21.000,134.380,15135,Tennant Creek Airport,152.58,6.609,5.653,6.131,15135,Tennant Creek Airport,152.58,77.867,7.677,43.077,15135,Tennant Creek Airport,152.58,35.352,28.661,32.065,23.571,16.007,19.855
325,872,Finke,-21.000,134.380,15135,Tennant Creek Airport,152.58,6.609,5.653,6.131,15135,Tennant Creek Airport,152.58,77.867,7.677,43.077,15135,Tennant Creek Airport,152.58,35.352,28.661,32.065,23.571,16.007,19.855
326,872,Ghan,-21.000,134.380,15135,Tennant Creek Airport,152.58,6.609,5.653,6.131,15135,Tennant Creek Airport,152.58,77.867,7.677,43.077,15135,Tennant Creek Airport,152.58,35.352,28.661,32.065,23.571,16.007,19.855
327,872,Haasts Bluff,-21.000,134.380,15135,Tennant Creek Airport,152.58,6.609,5.653,6.131,15135,Tennant Creek Airport,152.58,77.867,7.677,43.077,15135,Tennant Creek Airport,152.58,35.352,28.661,32.065,23.571,16.007,19.855
328,872,Hale,-21.000,134.380,15135,Tennant Creek Airport,152.58,6.609,5.653,6.131,15135,Tennant Creek Airport,152.58,77.867,7.677,43.077,15135,Tennant Creek Airport,152.58,35.352,28.661,32.065,23.571,16.007,19.855
329,872,Hart,-21.000,134.380,15135,Tennant Creek Airport,152.58,6.609,5.653,6.131,15135,Tennant Creek Airport,152.58,77.867,7.677,43.077,15135,Tennant Creek Airport,152.58,35.352,28.661,32.065,23.571,16.007,19.855
330,872,Hart Range,-21.000,134.380,15135,Tennant Creek Airport,152.58,6.609,5.653,6.131,15135,Tennant Creek Airport,152.58,77.867,7.677,43.077,15135,Tennant Creek Airport,152.58,35.352,28.661,32.065,23.571,16.007,19.855
331,872,Hermannsburg,-21.000,134.380,15135,Tennant Creek Airport,152.58,6.609,5.653,6.131,15135,Tennant Creek Airport,152.58,77.867,7.677,43.077,15135,Tennant Creek Airport,152.58,35.352,28.661,32.065,23.571,16.007,19.855
332,872,Hugh,-21.000,134.380,15135,Tennant Creek Airport,152.58,6.609,5.653,6.131,15135,Tennant Creek Airport,152.58,77.867,7.677,43.077,15135,Tennant Creek Airport,152.58,35.352,28.661,32.065,23.571,16.007,19.855
333,872,Imanpa,-21.000,134.380,15135,Tennant Creek Airport,152.58,6.609,5.653,6.131,15135,Tennant Creek Airport,152.58,77.867,7.677,43.077,15135,Tennant Creek Airport,152.58,35.352,28.661,32.065,23.571,16.007,19.855
334,872,Ininti Store,-21.000,134.380,15135,Tennant Creek Airport,152.58,6.609,5.653,6.131,15135,Tennant Creek Airport,152.58,77.867,7.677,43.077,15135,Tennant Creek Airport,152.58,35.352,28.661,32.065,23.571,16.007,19.855
335,872,Jay Creek,-21.000,134.380,15135,Tennant Creek Airport,152.58,6.609,5.653,6.131,15135,Tennant Creek Airport,152.58,77.867,7.677,43.077,15135,Tennant Creek Airport,152.58,35.352,28.661,32.065,23.571,16.007,19.855
336,872,Kaltukatjara,-21.000,134.380,15135,Tennant Creek Airport,152.58,6.609,5.653,6.131,15135,Tennant Creek Airport,152.58,77.867,7.677,43.077,15135,Tennant Creek Airport,152.58,35.352,28.661,32.065,23.571,16.007,19.855
337,872,Kintore,-21.000,134.380,15135,Tennant Creek Airport,152.58,6.609,5.653,6.131,15135,Tennant Creek Airport,152.58,77.867,7.677,43.077,15135,Tennant Creek Airport,152.58,35.352,28.661,32.065,23.571,16.007,19.855
338,872,Kiwirrkurra,-21.000,134.380,15135,Tennant Creek Airport,152.58,6.609,5.653,6.131,15135,Tennant Creek Airport,152.58,77.867,7.677,43.077,15135,Tennant Creek Airport,152.58,35.352,28.661,32.065,23.571,16.007,19.855
339,872,Kulgera,-21.000,134.380,15135,Tennant Creek Airport,152.58,6.609,5.653,6.131,15135,Tennant Creek Airport,152.58,77.867,7.677,43.077,15135,Tennant Creek Airport,152.58,35.352,28.661,32.065,23.571,16.007,19.855
340,872,Kunparrka,-21.000,134.380,15135,Tennant Creek Airport,152.58,6.609,5.653,6.131,15135,Tennant Creek Airport,152.58,77.867,7.677,43.077,15135,Tennant Creek Airport,152.58,35.352,28.661,32.065,23.571,16.007,19.855
341,872,Lake Mackay,-21.000,134.380,15135,Tennant Creek Airport,152.58,6.609,5.653,6.131,15135,Tennant Creek Airport,152.58,77.867,7.677,43.077,15135,Tennant Creek Airport,152.58,35.352,28.661,32.065,23.571,16.007,19.855
342,872,Laramba,-21.000,134.380,15135,Tennant Creek Airport,152.58,6.609,5.653,6.131,15135,Tennant Creek Airport,152.58,77.867,7.677,43.077,15135,Tennant Creek Airport,152.58,35.352,28.661,32.065,23.571,16.007,19.855
343,872,Mereenie,-21.000,134.380,15135,Tennant Creek Airport,152.58,6.609,5.653,6.131,15135,Tennant Creek Airport,152.58,77.867,7.677,43.077,15135,Tennant Creek Airport,152.58,35.352,28.661,32.065,23.571,16.007,19.855
344,872,Mount Liebig,-21.000,134.380,15135,Tennant Creek Airport,152.58,6.609,5.653,6.131,15135,Tennant Creek Airport,152.58,77.867,7.677,43.077,15135,Tennant Creek Airport,152.58,35.352,28.661,32.065,23.571,16.007,19.855
345,872,Mount Zeil,-21.000,134.380,15135,Tennant Creek Airport,152.58,6.609,5.653,6.131,15135,Tennant Creek Airport,152.58,77.867,7.677,43.077,15135,Tennant Creek Airport,152.58,35.352,28.661,32.065,23.571,16.007,19.855
346,872,Mulga Bore,-21.000,134.380,15135,Tennant Creek Airport,152.58,6.609,5.653,6.131,15135,Tennant Creek Airport,152.58,77.867,7.677,43.077,15135,Tennant Creek Airport,152.58,35.352,28.661,32.065,23.571,16.007,19.855
347,872,Murputja Homelands,-21.000,134.380,15135,Tennant Creek Airport,152.58,6.609,5.653,6.131,15135,Tennant Creek Airport,152.58,77.867,7.677,43.077,15135,Tennant Creek Airport,152.58,35.352,28.661,32.065,23.571,16.007,19.855
348,872,Mutitjulu,-21.000,134.380,15135,Tennant Creek Airport,152.58,6.609,5.653,6.131,15135,Tennant Creek Airport,152.58,77.867,7.677,43.077,15135,Tennant Creek Airport,152.58,35.352,28.661,32.065,23.571,16.007,19.855
349,872,Namatjira,-21.000,134.380,15135,Tennant Creek Airport,152.58,6.609,5.653,6.131,15135,Tennant Creek Airport,152.58,77.867,7.677,43.077,15135,Tennant Creek Airport,152.58,35.352,28.661,32.065,23.571,16.007,19.855
350,872,Nyapari,-21.000,134.380,15135,Tennant Creek Airport,152.58,6.609,5.653,6.131,15135,Tennant Creek Airport,152.58,77.867,7.677,43.077,15135,Tennant Creek Airport,152.58,35.352,28.661,32.065,23.571,16.007,19.855
351,872,Nyirripi,-21.000,134.380,15135,Tennant Creek Airport,152.58,6.609,5.653,6.131,15135,Tennant Creek Airport,152.58,77.867,7.677,43.077,15135,Tennant Creek Airport,152.58,35.352,28.661,32.065,23.571,16.007,19.855
352,872,Papunya,-21.000,134.380,15135,Tennant Creek Airport,152.58,6.609,5.653,6.131,15135,Tennant Creek Airport,152.58,77.867,7.677,43.077,15135,Tennant Creek Airport,152.58,35.352,28.661,32.065,23.571,16.007,19.855
353,872,Patjarr,-21.000,134.380,15135,Tennant Creek Airport,152.58,6.609,5.653,6.131,15135,Tennant Creek Airport,152.58,77.867,7.677,43.077,15135,Tennant Creek Airport,152.58,35.352,28.661,32.065,23.571,16.007,19.855
354,872,Petermann,-21.000,134.380,15135,Tennant Creek Airport,152.58,6.609,5.653,6.131,15135,Tennant Creek Airport,152.58,77.867,7.677,43.077,15135,Tennant Creek Airport,152.58,35.352,28.661,32.065,23.571,16.007,19.855
355,872,Pitjantjatjara Homelands,-21.000,134.380,15135,Tennant Creek Airport,152.58,6.609,5.653,6.131,15135,Tennant Creek Airport,152.58,77.867,7.677,43.077,15135,Tennant Creek Airport,152.58,35.352,28.661,32.065,23.571,16.007,19.855
356,872,Sandover,-21.000,134.380,15135,Tennant Creek Airport,152.58,6.609,5.653,6.131,15135,Tennant Creek Airport,152.58,77.867,7.677,43.077,15135,Tennant Creek Airport,152.58,35.352,28.661,32.065,23.571,16.007,19.855
357,872,Santa Teresa,-21.000,134.380,15135,Tennant Creek Airport,152.58,6.609,5.653,6.131,15135,Tennant Creek Airport,152.58,77.867,7.677,43.077,15135,Tennant Creek Airport,152.58,35.352,28.661,32.065,23.571,16.007,19.855
358,872,Simpson,-21.000,134.380,15135,Tennant Creek Airport,152.58,6.609,5.653,6.131,15135,Tennant Creek Airport,152.58,77.867,7.677,43.077,15135,Tennant Creek Airport,152.58,35.352,28.661,32.065,23.571,16.007,19.855
359,872,Tanami,-21.000,134.380,15135,Tennant Creek Airport,152.58,6.609,5.653,6.131,15135,Tennant Creek Airport,152.58,77.867,7.677,43.077,15135,Tennant Creek Airport,152.58,35.352,28.661,32.065,23.571,16.007,19.855
360,872,Tara,-21.000,134.380,15135,Tennant Creek Airport,152.58,6.609,5.653,6.131,15135,Tennant Creek Airport,152.58,77.867,7.677,43.077,15135,Tennant Creek Airport,152.58,35.352,28.661,32.065,23.571,16.007,19.855
361,872,Thangkenharenge,-21.000,134.380,15135,Tennant Creek Airport,152.58,6.609,5.653,6.131,15135,Tennant Creek Airport,152.58,77.867,7.677,43.077,15135,Tennant Creek Airport,152.58,35.352,28.661,32.065,23.571,16.007,19.855
362,872,Ti Tree,-21.000,134.380,15135,Tennant Creek Airport,152.58,6.609,5.653,6.131,15135,Tennant Creek Airport,152.58,77.867,7.677,43.077,15135,Tennant Creek Airport,152.58,35.352,28.661,32.065,23.571,16.007,19.855
363,872,Titjikala,-21.000,134.380,15135,Tennant Creek Airport,152.58,6.609,5.653,6.131,15135,Tennant Creek Airport,152.58,77.867,7.677,43.077,15135,Tennant Creek Airport,152.58,35.352,28.661,32.065,23.571,16.007,19.855
364,872,Tjirrkarli,-21.000,134.380,15135,Tennant Creek Airport,152.58,6.609,5.653,6.131,15135,Tennant Creek Airport,152.58,77.867,7.677,43.077,15135,Tennant Creek Airport,152.58,35.352,28.661,32.065,23.571,16.007,19.855
365,872,Tjukurla,-21.000,134.380,15135,Tennant Creek Airport,152.58,6.609,5.653,6.131,15135,Tennant Creek Airport,152.58,77.867,7.677,43.077,15135,Tennant Creek Airport,152.58,35.352,28.661,32.065,23.571,16.007,19.855
366,872,Uluru,-21.000,134.380,15135,Tennant Creek Airport,152.58,6.609,5.653,6.131,15135,Tennant Creek Airport,152.58,77.867,7.677,43.077,15135,Tennant Creek Airport,152.58,35.352,28.661,32.065,23.571,16.007,19.855
367,872,Umpangara,-21.000,134.380,15135,Tennant Creek Airport,152.58,6.609,5.653,6.131,15135,Tennant Creek Airport,152.58,77.867,7.677,43.077,15135,Tennant Creek Airport,152.58,35.352,28.661,32.065,23.571,16.007,19.855
368,872,Urapuntja,-21.000,134.380,15135,Tennant Creek Airport,152.58,6.609,5.653,6.131,15135,Tennant Creek Airport,152.58,77.867,7.677,43.077,15135,Tennant Creek Airport,152.58,35.352,28.661,32.065,23.571,16.007,19.855
369,872,Wallace Rockhole,-21.000,134.380,15135,Tennant Creek Airport,152.58,6.609,5.653,6.131,15135,Tennant Creek Airport,152.58,77.867,7.677,43.077,15135,Tennant Creek Airport,152.58,35.352,28.661,32.065,23.571,16.007,19.855
370,872,Wanarn,-21.000,134.380,15135,Tennant Creek Airport,152.58,6.609,5.653,6.131,15135,Tennant Creek Airport,152.58,77.867,7.677,43.077,15135,Tennant Creek Airport,152.58,35.352,28.661,32.065,23.571,16.007,19.855
371,872,Willowra,-21.000,134.380,15135,Tennant Creek Airport,152.58,6.609,5.653,6.131,15135,Tennant Creek Airport,152.58,77.867,7.677,43.077,15135,Tennant Creek Airport,152.58,35.352,28.661,32.065,23.571,16.007,19.855
372,872,Wilora,-21.000,134.380,15135,Tennant Creek Airport,152.58,6.609,5.653,6.131,15135,Tennant Creek Airport,152.58,77.867,7.677,43.077,15135,Tennant Creek Airport,152.58,35.352,28.661,32.065,23.571,16.007,19.855
373,872,Wingellina,-21.000,134.380,15135,Tennant Creek Airport,152.58,6.609,5.653,6.131,15135,Tennant Creek Airport,152.58,77.867,7.677,43.077,15135,Tennant Creek Airport,152.58,35.352,28.661,32.065,23.571,16.007,19.855
374,872,Wutunugurra,-21.000,134.380,15135,Tennant Creek Airport,152.58,6.609,5.653,6.131,15135,Tennant Creek Airport,152.58,77.867,7.677,43.077,15135,Tennant Creek Airport,152.58,35.352,28.661,32.065,23.571,16.007,19.855
375,872,Yuelamu,-21.000,134.380,15135,Tennant Creek Airport,152.58,6.609,5.653,6.131,15135,Tennant Creek Airport,152.58,77.867,7.677,43.077,15135,Tennant Creek Airport,152.58,35.352,28.661,32.065,23.571,16.007,19.855
376,872,Yuendumu,-21.000,134.380,15135,Tennant Creek Airport,152.58,6.609,5.653,6.131,15135,Tennant Creek Airport,152.58,77.867,7.677,43.077,15135,Tennant Creek Airport,152.58,35.352,28.661,32.065,23.571,16.007,19.855
377,872,Yulara,-21.000,134.380,15135,Tennant Creek Airport,152.58,6.609,5.653,6.131,15135,Tennant Creek Airport,152.58,77.867,7.677,43.077,15135,Tennant Creek Airport,152.58,35.352,28.661,32.065,23.571,16.007,19.855
378,880,Gapuwiyak,-12.380,130.870,14289,Charles Darwin University,1.11,5.567,6.078,5.822,14289,Charles Darwin University,1.11,176.067,24.758,85.282,14015,Darwin Airport,4.96,32.676,32.318,32.500,24.978,21.350,23.196
379,880,Gove,-12.333,136.814,14512,Nhulunbuy,16.97,5.691,5.813,5.752,14512,Nhulunbuy,16.97,203.320,30.214,116.767,14508,Gove Airport,7.02,32.212,29.655,30.956,24.191,20.727,22.489
380,880,Gunyangara,-12.380,130.870,14289,Charles Darwin University,1.11,5.567,6.078,5.822,14289,Charles Darwin University,1.11,176.067,24.758,85.282,14015,Darwin Airport,4.96,32.676,32.318,32.500,24.978,21.350,23.196
381,880,Nhulunbuy,-12.204,136.627,14512,Nhulunbuy,14.84,5.691,5.813,5.752,14512,Nhulunbuy,14.84,203.320,30.214,116.767,14508,Gove Airport,22.64,32.212,29.655,30.956,24.191,20.727,22.489
382,880,Yirrkala,-12.380,130.870,14289,Charles Darwin University,1.11,5.567,6.078,5.822,14289,Charles Darwin University,1.11,176.067,24.758,85.282,14015,Darwin Airport,4.96,32.676,32.318,32.500,24.978,21.350,23.196
383,881,Nhulunbuy,-12.204,136.627,14512,Nhulunbuy,14.84,5.691,5.813,5.752,14512,Nhulunbuy,14.84,203.320,30.214,116.767,14508,Gove Airport,22.64,32.212,29.655,30.956,24.191,20.727,22.489
384,885,Alyangula,-13.850,136.412,14518,Groote Eylandt Airport,14.35,5.777,5.830,5.804,14518,Groote Eylandt Airport,14.35,210.855,15.354,113.955,14518,Groote Eylandt Airport,14.35,33.455,30.798,32.150,24.128,17.723,20.982
385,886,Jabiru,-12.671,132.802,14960,Pine Creek Council,167.05,6.014,6.062,6.038,14198,Jabiru Airport,9.84,260.586,15.443,140.165,14198,Jabiru Airport,9.84,34.898,34.523,34.714,24.783,21.159,23.003
386,906,Winnellie,-12.430,130.880,14015,Darwin Airport,1.57,5.567,6.078,5.822,14015,Darwin Airport,1.57,288.390,18.432,154.584,14015,Darwin Airport,1.57,32.676,32.318,32.500,24.978,21.350,23.196
387,907,Winnellie,-12.430,130.880,14015,Darwin Airport,1.57,5.567,6.078,5.822,14015,Darwin Airport,1.57,288.390,18.432,154.584,14015,Darwin Airport,1.57,32.676,32.318,32.500,24.978,21.350,23.196
388,909,Charles Darwin University,-12.372,130.867,14289,Charles Darwin University,0.40,5.567,6.078,5.822,14289,Charles Darwin University,0.40,176.067,24.758,85.282,14015,Darwin Airport,5.91,32.676,32.318,32.500,24.978,21.350,23.196
389,4825,Alpurrurulam,-22.095,139.935,15135,Tennant Creek Airport,694.50,6.609,5.653,6.131,15135,Tennant Creek Airport,694.50,77.867,7.677,43.077,15135,Tennant Creek Airport,694.50,35.352,28.661,32.065,23.571,16.007,19.855
390,4825,Ranken,-18.599,132.056,15135,Tennant Creek Airport,262.56,6.609,5.653,6.131,15135,Tennant Creek Airport,262.56,77.867,7.677,43.077,15135,Tennant Creek Airport,262.56,35.352,28.661,32.065,23.571,16.007,19.855
